"name","address","city","state","zip","country","hours","google_url","phone","website","place_id"
"Saint Anthony Park Library","2245 Como Ave","St Paul","MN",55108,"US","<ul><li>Monday: 12:00 – 8:00 PM</li><li>Tuesday: 10:00 AM – 8:00 PM</li><li>Wednesday: 12:00 – 8:00 PM</li><li>Thursday: 10:00 AM – 8:00 PM</li><li>Friday: 10:00 AM – 5:30 PM</li><li>Saturday: 11:30 AM – 5:00 PM</li><li>Sunday: Closed</li></ul>","https://maps.google.com/?cid=11673257538635856129","651-642-0411","http://www.sppl.org/about/locations/saint-anthony-park","ChIJ5WMuAZEss1IRAXkKQuK9_6E"
"Natural Resources Library","1980 Folwell Ave","Falcon Heights","MN",55108,"US","","https://maps.google.com/?cid=13756809871413187799","612-624-9288","https://www.lib.umn.edu/naturalresources","ChIJrRW_14Iss1IR15Qr_LAB6r4"
"John R. Borchert Map Library","309 19th Ave S","Minneapolis","MN",55455,"US","<ul><li>Monday: 9:00 AM – 7:00 PM</li><li>Tuesday: 9:00 AM – 7:00 PM</li><li>Wednesday: 9:00 AM – 7:00 PM</li><li>Thursday: 9:00 AM – 7:00 PM</li><li>Friday: 9:00 AM – 7:00 PM</li><li>Saturday: 1:00 – 5:00 PM</li><li>Sunday: Closed</li></ul>","https://maps.google.com/?cid=17794906707799565617","612-624-4549","http://map.lib.umn.edu/","ChIJS_44o0Ets1IRMeWbiV419PY"
"Hayden Heights Library","1456 White Bear Ave","St Paul","MN",55106,"US","<ul><li>Monday: 12:00 – 8:00 PM</li><li>Tuesday: 10:00 AM – 8:00 PM</li><li>Wednesday: 12:00 – 8:00 PM</li><li>Thursday: 10:00 AM – 8:00 PM</li><li>Friday: 10:00 AM – 5:30 PM</li><li>Saturday: 11:30 AM – 5:00 PM</li><li>Sunday: Closed</li></ul>","https://maps.google.com/?cid=2258171381224214683","651-793-3934","http://www.sppl.org/about/locations/hayden-heights","ChIJHfqleZzUslIRm5DSK-iiVh8"
"Scott County Law Library","200 4th Ave W","Shakopee","MN",55379,"US","<ul><li>Monday: 8:00 AM – 4:30 PM</li><li>Tuesday: 8:00 AM – 4:30 PM</li><li>Wednesday: 8:00 AM – 4:30 PM</li><li>Thursday: 8:00 AM – 4:30 PM</li><li>Friday: 8:00 AM – 4:30 PM</li><li>Saturday: Closed</li><li>Sunday: Closed</li></ul>","https://maps.google.com/?cid=15046846704156631175","952-496-8713","http://www.scottlib.org/","ChIJ01HYw50Q9ocRh2ADF1sj0dA"
"Debra S Fish Early Childhood","10 Yorkton Ct","St Paul","MN",55117,"US","<ul><li>Monday: 8:30 AM – 5:00 PM</li><li>Tuesday: 8:30 AM – 5:00 PM</li><li>Wednesday: 8:30 AM – 5:00 PM</li><li>Thursday: 8:30 AM – 5:00 PM</li><li>Friday: 8:30 AM – 5:00 PM</li><li>Saturday: Closed</li><li>Sunday: Closed</li></ul>","https://maps.google.com/?cid=7728902283708045317","651-641-3544","http://www.thinksmall.org/for_early_childhood_professionals/debra_s_fish_library","ChIJFYI-OvzVslIRBZgfdK2TQms"
"Osceola Public Library","102 Chieftain St","Osceola","WI",54020,"US","","https://maps.google.com/?cid=6712995425685833160","715-294-2310","http://www.osceolapubliclibrary.org/","ChIJJ3LcGuiWslIRyIXTzsVZKV0"
"Mathematics Library","206 Church St SE","Minneapolis","MN",55455,"US","","https://maps.google.com/?cid=17496080662757530986","612-624-6075","http://math.lib.umn.edu/","ChIJte0l9xYts1IRal0-IaqQzvI"
"Newport Public Library","405 7th Ave","Newport","MN",55055,"US","<ul><li>Monday: 4:00 – 8:00 PM</li><li>Tuesday: 1:00 – 8:00 PM</li><li>Wednesday: 12:00 – 8:00 PM</li><li>Thursday: 3:00 – 8:00 PM</li><li>Friday: 5:00 – 8:00 PM</li><li>Saturday: 12:00 – 5:00 PM</li><li>Sunday: 11:00 AM – 5:00 PM</li></ul>","https://maps.google.com/?cid=7222237005091729592","651-459-9631","http://www.ci.newport.mn.us/library.php","ChIJ1TFnB23R94cRuHAshEqKOmQ"
"Shakopee Library","235 Lewis St S","Shakopee","MN",55379,"US","<ul><li>Monday: 10:00 AM – 8:00 PM</li><li>Tuesday: 10:00 AM – 8:00 PM</li><li>Wednesday: 1:00 – 8:00 PM</li><li>Thursday: 10:00 AM – 8:00 PM</li><li>Friday: 1:00 – 5:00 PM</li><li>Saturday: 10:00 AM – 4:00 PM</li><li>Sunday: 1:00 – 5:00 PM</li></ul>","https://maps.google.com/?cid=3981050696513814414","952-233-9590","http://www.scottlib.org/","ChIJiT8A8nUa9ocRjv-GFoSIPzc"
"Physical Sciences & Eng Division","117 Pleasant St SE","Minneapolis","MN",55455,"US","","https://maps.google.com/?cid=1877137129926331611","612-624-0224","","ChIJoaepShQts1IR24z0L0buDBo"
"Video Library Inc","15640 Cornell Trail","Rosemount","MN",55068,"US","","https://maps.google.com/?cid=10799310238086294303","651-423-5623","","ChIJ81brcGM09ocRH2tfwHHb3pU"
"Lindell Library","630 22nd Ave S","Minneapolis","MN",55454,"US","","https://maps.google.com/?cid=6034375792515060525","612-330-1000","http://library.augsburg.edu/","ChIJf_GM3kYts1IRLZMT0s9ovlM"
"Volunteer Braille Services","1710 Douglas Dr N","Golden Valley","MN",55422,"US","","https://maps.google.com/?cid=9115658272925131361","763-544-2880","http://www.vbsmn.org/","ChIJkx2SqGg0s1IRYaKNA-dSgX4"
"Ramsey County Library Administration","4570 Victoria St N","Shoreview","MN",55126,"US","<ul><li>Monday: 10:00 AM – 9:00 PM</li><li>Tuesday: 10:00 AM – 9:00 PM</li><li>Wednesday: 10:00 AM – 9:00 PM</li><li>Thursday: 10:00 AM – 9:00 PM</li><li>Friday: 10:00 AM – 5:00 PM</li><li>Saturday: 10:00 AM – 5:00 PM</li><li>Sunday: 12:00 – 5:00 PM</li></ul>","https://maps.google.com/?cid=5124109738099939999","651-486-2200","http://www.rclreads.org/","ChIJITb4W0Yos1IRnxqReah-HEc"
"Holy Trinity Lutheran Church","2730 E 31st St","Minneapolis","MN",55406,"US","<ul><li>Monday: 8:30 AM – 4:00 PM</li><li>Tuesday: 8:30 AM – 4:00 PM</li><li>Wednesday: 8:30 AM – 4:00 PM</li><li>Thursday: 8:30 AM – 4:00 PM</li><li>Friday: 8:30 AM – 3:00 PM</li><li>Saturday: Closed</li><li>Sunday: 8:30 AM – 12:30 PM</li></ul>","https://maps.google.com/?cid=594554089574813548","612-729-8358","http://www.htlcmpls.org/","ChIJR0LSiiQo9ocRbM_cXMtHQAg"
"George Latimer Central Library","90 W 4th St","St Paul","MN",55102,"US","<ul><li>Monday: 12:00 – 8:00 PM</li><li>Tuesday: 9:00 AM – 5:30 PM</li><li>Wednesday: 9:00 AM – 5:30 PM</li><li>Thursday: 9:00 AM – 5:30 PM</li><li>Friday: 9:00 AM – 5:30 PM</li><li>Saturday: 11:30 AM – 5:00 PM</li><li>Sunday: 1:00 – 5:00 PM</li></ul>","https://maps.google.com/?cid=2464794017014329848","651-266-7000","http://www.sppl.org/about/locations/central-library","ChIJGScZUUvV94cR-LGldBm1NCI"
"Rondo Community Outreach Library","461 Dale St N","St Paul","MN",55104,"US","<ul><li>Monday: 10:00 AM – 8:00 PM</li><li>Tuesday: 10:00 AM – 8:00 PM</li><li>Wednesday: 10:00 AM – 8:00 PM</li><li>Thursday: 10:00 AM – 8:00 PM</li><li>Friday: 10:00 AM – 5:30 PM</li><li>Saturday: 10:00 AM – 5:30 PM</li><li>Sunday: 1:00 – 5:00 PM</li></ul>","https://maps.google.com/?cid=17535349314349717860","651-266-7400","http://www.sppl.org/about/locations/rondo","ChIJ7awyHp0q9ocRZFk0jksTWvM"
"Ramsay Law Firm, PLLC","2780 Snelling Ave N","Roseville","MN",55113,"US","","https://maps.google.com/?cid=15308044890200682969","651-604-0000","http://www.minneapolisdwidefenselawyer.com/","ChIJiSvgZecrs1IR2TEl3rgZcdQ"
"Somerset Public Library","208 Hud St","Somerset","WI",54025,"US","","https://maps.google.com/?cid=6386362539734950094","715-247-5228","http://www.somersetlibrary.org/","ChIJp41TRny6slIRzmDDu-TqoFg"
"Prescott Library","800 Borner St N","Prescott","WI",54021,"US","","https://maps.google.com/?cid=14412292667886118729","715-262-5555","http://prescottpubliclibrary.org/","ChIJJesyrw3C94cRSadRZNK_Asg"
"Rockford Road Library","6401 42nd Ave N","Minneapolis","MN",55427,"US","<ul><li>Monday: 9:00 AM – 8:00 PM</li><li>Tuesday: 9:00 AM – 8:00 PM</li><li>Wednesday: 9:00 AM – 8:00 PM</li><li>Thursday: 9:00 AM – 5:00 PM</li><li>Friday: 9:00 AM – 5:00 PM</li><li>Saturday: 9:00 AM – 5:00 PM</li><li>Sunday: 12:00 – 5:00 PM</li></ul>","https://maps.google.com/?cid=8338112391743149726","612-543-5875","http://www.hclib.org/rockfordroad","ChIJCy7WW6Q2s1IRnhYiBwvttnM"
"University of St Thomas - Archbishop Ireland Memorial Library","2260 Summit Ave","St Paul","MN",55105,"US","<ul><li>Monday: 8:00 AM – 10:00 PM</li><li>Tuesday: 8:00 AM – 10:00 PM</li><li>Wednesday: 8:00 AM – 10:00 PM</li><li>Thursday: 8:00 AM – 10:00 PM</li><li>Friday: 8:00 AM – 5:00 PM</li><li>Saturday: 12:00 – 5:00 PM</li><li>Sunday: 12:00 – 10:00 PM</li></ul>","https://maps.google.com/?cid=629919491053103066","651-962-5450","http://www.stthomas.edu/libraries/ireland/","ChIJDQkIPuop9ocR2qdQjXDsvQg"
"Plymouth Library","15700 36th Ave N","Plymouth","MN",55446,"US","<ul><li>Monday: 9:00 AM – 9:00 PM</li><li>Tuesday: 9:00 AM – 9:00 PM</li><li>Wednesday: 9:00 AM – 9:00 PM</li><li>Thursday: 9:00 AM – 9:00 PM</li><li>Friday: 9:00 AM – 5:00 PM</li><li>Saturday: 9:00 AM – 5:00 PM</li><li>Sunday: 12:00 – 5:00 PM</li></ul>","https://maps.google.com/?cid=955280622909905352","612-543-5825","http://www.hclib.org/plymouth","ChIJtZF3lGJJs1IRyNlbTarWQQ0"
"Jordan Library","275 Creek Ln S","Jordan","MN",55352,"US","<ul><li>Monday: 1:00 – 8:00 PM</li><li>Tuesday: 10:00 AM – 5:00 PM</li><li>Wednesday: 1:00 – 8:00 PM</li><li>Thursday: 10:00 AM – 5:00 PM</li><li>Friday: Closed</li><li>Saturday: 10:00 AM – 2:00 PM</li><li>Sunday: Closed</li></ul>","https://maps.google.com/?cid=13834442728730177957","952-496-8050","http://www.scottlib.org/","ChIJQc4vxegM9ocRpbFyH13Q_b8"
"Brookdale Library","6125 Shingle Creek Pkwy","Brooklyn Center","MN",55430,"US","<ul><li>Monday: 9:00 AM – 9:00 PM</li><li>Tuesday: 9:00 AM – 9:00 PM</li><li>Wednesday: 9:00 AM – 9:00 PM</li><li>Thursday: 9:00 AM – 9:00 PM</li><li>Friday: 9:00 AM – 5:00 PM</li><li>Saturday: 9:00 AM – 5:00 PM</li><li>Sunday: 12:00 – 5:00 PM</li></ul>","https://maps.google.com/?cid=5132434574675055565","612-543-5600","http://www.hclib.org/brookdale","ChIJ4zPbcVUws1IRzZNwiA0SOkc"
"Webber Park Library","4203 Webber Pkwy","Minneapolis","MN",55412,"US","<ul><li>Monday: Closed</li><li>Tuesday: 12:00 – 8:00 PM</li><li>Wednesday: Closed</li><li>Thursday: 12:00 – 8:00 PM</li><li>Friday: Closed</li><li>Saturday: 9:00 AM – 5:00 PM</li><li>Sunday: Closed</li></ul>","https://maps.google.com/?cid=9747193665386941966","612-543-6750","http://www.hclib.org/webberpark","ChIJxV--RIwxs1IRDo5T7v78RIc"
"River Falls Public Library","140 Union St","River Falls","WI",54022,"US","<ul><li>Monday: 9:00 AM – 8:00 PM</li><li>Tuesday: 9:00 AM – 8:00 PM</li><li>Wednesday: 9:00 AM – 8:00 PM</li><li>Thursday: 9:00 AM – 8:00 PM</li><li>Friday: 9:00 AM – 6:00 PM</li><li>Saturday: 10:00 AM – 4:00 PM</li><li>Sunday: 1:00 – 4:00 PM</li></ul>","https://maps.google.com/?cid=1689696853234873215","715-425-0905","http://www.riverfallspubliclibrary.org/","ChIJu6AlutPk94cRf_Mo61UCcxc"
"Great River Regional Library","11800 Town Center Dr","St Michael","MN",55376,"US","<ul><li>Monday: 10:00 AM – 8:00 PM</li><li>Tuesday: 10:00 AM – 6:00 PM</li><li>Wednesday: 10:00 AM – 8:00 PM</li><li>Thursday: 1:00 – 8:00 PM</li><li>Friday: 12:00 – 5:00 PM</li><li>Saturday: 10:00 AM – 1:00 PM</li><li>Sunday: Closed</li></ul>","https://maps.google.com/?cid=11003918302045717413","763-497-1998","http://www.griver.org/","ChIJ5Svf8wVds1IRpcPa-mTFtZg"
"St Paul Bookmobile Office","461 Dale St N","St Paul","MN",55103,"US","","https://maps.google.com/?cid=5142580606067058924","651-266-7450","http://www.sppl.org/bookmobile","ChIJZXvNH50q9ocR7KhwjdAdXkc"
"Peter Watne Memorial Library","8700 College View Dr","St Bonifacius","MN",55375,"US","<ul><li>Monday: 7:30 AM – 12:00 AM</li><li>Tuesday: 7:30 AM – 12:00 AM</li><li>Wednesday: 7:30 AM – 12:00 AM</li><li>Thursday: 7:30 AM – 12:00 AM</li><li>Friday: 7:30 AM – 5:00 PM</li><li>Saturday: 12:00 – 6:00 PM</li><li>Sunday: 6:00 PM – 12:00 AM</li></ul>","https://maps.google.com/?cid=2274571403731755212","952-446-4241","http://www.crown.edu/library","ChIJW-iUKJ4A9ocRzGCx96PmkB8"
"Great River Regional Library","18 Lake Blvd NW","Buffalo","MN",55313,"US","<ul><li>Monday: 10:00 AM – 8:00 PM</li><li>Tuesday: 10:00 AM – 8:00 PM</li><li>Wednesday: 10:00 AM – 8:00 PM</li><li>Thursday: 12:00 – 8:00 PM</li><li>Friday: 11:00 AM – 5:00 PM</li><li>Saturday: 10:00 AM – 2:00 PM</li><li>Sunday: Closed</li></ul>","https://maps.google.com/?cid=9653232321164371917","763-682-2753","http://www.griver.org/","ChIJ4_NtVZOjtFIRzWdSraYr94U"
"Minnesota Legislative Reference Library","100 Rev Dr Martin Luther King Jr Boulevard.","St Paul","MN",55155,"US","<ul><li>Monday: 8:00 AM – 4:30 PM</li><li>Tuesday: 8:00 AM – 4:30 PM</li><li>Wednesday: 8:00 AM – 4:30 PM</li><li>Thursday: 8:00 AM – 4:30 PM</li><li>Friday: 8:00 AM – 4:30 PM</li><li>Saturday: Closed</li><li>Sunday: Closed</li></ul>","https://maps.google.com/?cid=14710753603438760885","651-296-8338","http://www.leg.state.mn.us/lrl/","ChIJMY6ia6sq9ocRtdNDH3YYJ8w"
"Ridgedale Library","12601 Ridgedale Dr","Minnetonka","MN",55305,"US","<ul><li>Monday: 9:00 AM – 9:00 PM</li><li>Tuesday: 9:00 AM – 9:00 PM</li><li>Wednesday: 9:00 AM – 9:00 PM</li><li>Thursday: 9:00 AM – 9:00 PM</li><li>Friday: 9:00 AM – 5:00 PM</li><li>Saturday: 9:00 AM – 5:00 PM</li><li>Sunday: 12:00 – 5:00 PM</li></ul>","https://maps.google.com/?cid=11166497392608449651","612-543-8800","http://www.hclib.org/ridgedale","ChIJY_vDo79Ks1IRc5TARzde95o"
"Columbia Heights Public Library","820 40th Ave NE","Columbia Heights","MN",55421,"US","<ul><li>Monday: 9:00 AM – 8:00 PM</li><li>Tuesday: 9:00 AM – 8:00 PM</li><li>Wednesday: 9:00 AM – 8:00 PM</li><li>Thursday: 10:00 AM – 6:00 PM</li><li>Friday: 9:00 AM – 5:00 PM</li><li>Saturday: 10:00 AM – 4:00 PM</li><li>Sunday: Closed</li></ul>","https://maps.google.com/?cid=11913146618737404783","763-706-3690","http://www.ci.columbia-heights.mn.us/index.aspx?nid=127","ChIJJZqgCBMus1IRbyv9Lrv_U6U"
"United Theological Seminary of the Twin Cities","3000 5th St NW","New Brighton","MN",55112,"US","<ul><li>Monday: 8:00 AM – 9:00 PM</li><li>Tuesday: 8:00 AM – 9:00 PM</li><li>Wednesday: 8:00 AM – 5:00 PM</li><li>Thursday: 8:00 AM – 9:00 PM</li><li>Friday: 8:00 AM – 5:00 PM</li><li>Saturday: 10:00 AM – 2:00 PM</li><li>Sunday: Closed</li></ul>","https://maps.google.com/?cid=14870797438667982010","651-633-4311","http://www.unitedseminary.edu/","ChIJX8G3lPkus1IRugSYSnuvX84"
"Hennepin County Law Library","300 S 6th St # 245C","Minneapolis","MN",55487,"US","","https://maps.google.com/?cid=52203688311039054","612-348-3022","http://hclaw.co.hennepin.mn.us/","ChIJXSOCXZkys1IRTqS-Wfp2uQA"
"Bayport Public Library","582 4th St N","Bayport","MN",55003,"US","<ul><li>Monday: 10:00 AM – 8:00 PM</li><li>Tuesday: 10:00 AM – 6:00 PM</li><li>Wednesday: 12:00 – 8:00 PM</li><li>Thursday: 12:00 – 8:00 PM</li><li>Friday: 10:00 AM – 5:00 PM</li><li>Saturday: 10:00 AM – 3:00 PM</li><li>Sunday: Closed</li></ul>","https://maps.google.com/?cid=11188031924948160481","651-275-4416","http://www.bayportlibrary.org/","ChIJY1C33Iq1slIR4c9DTsLfQ5s"
"Walter Library","117 Pleasant St SE","Minneapolis","MN",55455,"US","<ul><li>Monday: 8:00 AM – 12:00 AM</li><li>Tuesday: 8:00 AM – 12:00 AM</li><li>Wednesday: 8:00 AM – 12:00 AM</li><li>Thursday: 8:00 AM – 12:00 AM</li><li>Friday: 8:00 AM – 9:00 PM</li><li>Saturday: 10:00 AM – 9:00 PM</li><li>Sunday: 12:00 PM – 12:00 AM</li></ul>","https://maps.google.com/?cid=15357006091153053898","612-624-3366","https://www.lib.umn.edu/walter","ChIJSwWpShQts1IRyhiwzKwLH9U"
"Jordan Public Library","230 Broadway St S","Jordan","MN",55352,"US","","https://maps.google.com/?cid=9835734811494819123","952-492-2500","","ChIJ4_iER-EM9ocRM6UX-LKMf4g"
"The Loft Literary Center","1011 S Washington Ave","Minneapolis","MN",55415,"US","<ul><li>Monday: Closed</li><li>Tuesday: 9:00 AM – 5:00 PM</li><li>Wednesday: 9:00 AM – 5:00 PM</li><li>Thursday: 9:00 AM – 5:00 PM</li><li>Friday: 9:00 AM – 5:00 PM</li><li>Saturday: Closed</li><li>Sunday: Closed</li></ul>","https://maps.google.com/?cid=18264577474948089283","612-215-2575","https://www.loft.org/","ChIJZfg372Yts1IRw8XhjnHQeP0"
"Champlin Library","12154 Ensign Ave N","Champlin","MN",55316,"US","<ul><li>Monday: 9:00 AM – 5:00 PM</li><li>Tuesday: 12:00 – 8:00 PM</li><li>Wednesday: 9:00 AM – 5:00 PM</li><li>Thursday: 12:00 – 8:00 PM</li><li>Friday: 9:00 AM – 5:00 PM</li><li>Saturday: 9:00 AM – 5:00 PM</li><li>Sunday: Closed</li></ul>","https://maps.google.com/?cid=13976705215563967929","612-543-6250","http://www.hclib.org/champlin","ChIJrzE-Oc0-s1IRuS0KgFc798E"
"Washburn Library","5244 Lyndale Ave S","Minneapolis","MN",55419,"US","<ul><li>Monday: 9:00 AM – 5:00 PM</li><li>Tuesday: 12:00 – 8:00 PM</li><li>Wednesday: 9:00 AM – 5:00 PM</li><li>Thursday: 12:00 – 8:00 PM</li><li>Friday: 9:00 AM – 5:00 PM</li><li>Saturday: 9:00 AM – 5:00 PM</li><li>Sunday: Closed</li></ul>","https://maps.google.com/?cid=5334434926399714850","612-543-8375","http://www.hclib.org/washburn","ChIJmb95308m9ocRIvZ9cU24B0o"
"University of St Thomas - Charles J. Keffer Library","1000 Lasalle Ave","Minneapolis","MN",55403,"US","<ul><li>Monday: 8:00 AM – 10:00 PM</li><li>Tuesday: 8:00 AM – 10:00 PM</li><li>Wednesday: 8:00 AM – 10:00 PM</li><li>Thursday: 8:00 AM – 10:00 PM</li><li>Friday: 8:00 AM – 5:00 PM</li><li>Saturday: 9:00 AM – 5:00 PM</li><li>Sunday: Closed</li></ul>","https://maps.google.com/?cid=18165937416527555844","651-962-4642","http://www.stthomas.edu/libraries/","ChIJRYDzLpQys1IRBC0aRNVfGvw"
"Metropolitan Library Services Agency","1619 W Dayton Ave","St Paul","MN",55104,"US","","https://maps.google.com/?cid=11045526789154403543","651-645-5731","http://www.melsa.org/","ChIJc6kEXQUq9ocR1_Sb0BeYSZk"
"Golden Valley Library","830 Winnetka Ave N","Minneapolis","MN",55427,"US","<ul><li>Monday: 9:00 AM – 8:00 PM</li><li>Tuesday: 9:00 AM – 8:00 PM</li><li>Wednesday: 9:00 AM – 8:00 PM</li><li>Thursday: 9:00 AM – 5:00 PM</li><li>Friday: 9:00 AM – 5:00 PM</li><li>Saturday: 9:00 AM – 5:00 PM</li><li>Sunday: 12:00 – 5:00 PM</li></ul>","https://maps.google.com/?cid=2004878500720872371","612-543-6375","http://www.hclib.org/about/locations","ChIJYQhN71U0s1IRswtJxV_C0hs"
"Rum River Library","4201 6th Ave","Anoka","MN",55303,"US","<ul><li>Monday: 12:00 – 8:00 PM</li><li>Tuesday: 10:00 AM – 8:00 PM</li><li>Wednesday: 12:00 – 8:00 PM</li><li>Thursday: 10:00 AM – 6:00 PM</li><li>Friday: 12:00 – 6:00 PM</li><li>Saturday: 10:00 AM – 5:00 PM</li><li>Sunday: Closed</li></ul>","https://maps.google.com/?cid=12043760567495118507","763-576-4695","http://www.anokacountylibrary.org/","ChIJU_OZpWI-s1IRq05n8WwIJKc"
"Long Lake Library","1865 Wayzata Blvd","Long Lake","MN",55356,"US","<ul><li>Monday: 12:00 – 8:00 PM</li><li>Tuesday: Closed</li><li>Wednesday: 9:00 AM – 5:00 PM</li><li>Thursday: Closed</li><li>Friday: 9:00 AM – 5:00 PM</li><li>Saturday: Closed</li><li>Sunday: Closed</li></ul>","https://maps.google.com/?cid=12927822474307464272","612-543-6425","http://www.hclib.org/longlake","ChIJFRwFE5xNs1IRUGxovAvaaLM"
"Music Library","2106 S 4th St","Minneapolis","MN",55455,"US","","https://maps.google.com/?cid=10355113104247114809","612-624-5890","https://www.lib.umn.edu/music","ChIJC20C-0Ats1IROUykK4HAtI8"
"ONECCO","7509 Boone Ave N","Brooklyn Park","MN",55428,"US","<ul><li>Monday: 8:00 AM – 4:30 PM</li><li>Tuesday: 8:00 AM – 4:30 PM</li><li>Wednesday: 8:00 AM – 4:30 PM</li><li>Thursday: 8:00 AM – 4:30 PM</li><li>Friday: 8:00 AM – 4:30 PM</li><li>Saturday: 8:00 AM – 4:30 PM</li><li>Sunday: Closed</li></ul>","https://maps.google.com/?cid=15238805666909654011","612-460-1226","","ChIJdy8yTng3s1IR-wtc8QMde9M"
"Riverview Library","1 George St E","St Paul","MN",55107,"US","<ul><li>Monday: 12:00 – 8:00 PM</li><li>Tuesday: 10:00 AM – 8:00 PM</li><li>Wednesday: 12:00 – 8:00 PM</li><li>Thursday: 10:00 AM – 8:00 PM</li><li>Friday: 10:00 AM – 5:30 PM</li><li>Saturday: 11:30 AM – 5:00 PM</li><li>Sunday: Closed</li></ul>","https://maps.google.com/?cid=17875518875163532309","651-292-6626","http://www.sppl.org/about/locations/riverview","ChIJ78WD0CTV94cRFZzpWbWZEvg"
"Wentworth Library","199 Wentworth Ave E","St Paul","MN",55118,"US","<ul><li>Monday: 10:00 AM – 8:30 PM</li><li>Tuesday: 10:00 AM – 8:30 PM</li><li>Wednesday: 10:00 AM – 8:30 PM</li><li>Thursday: 10:00 AM – 8:30 PM</li><li>Friday: 10:00 AM – 5:30 PM</li><li>Saturday: 10:00 AM – 5:30 PM</li><li>Sunday: 1:00 – 5:00 PM</li></ul>","https://maps.google.com/?cid=11399986499509335482","651-554-6800","https://www.co.dakota.mn.us/libraries/Pages/default.aspx","ChIJlzaaeJbU94cRurWAU1LjNJ4"
"Eureka Documentation System","12920 Charlston Ct","Rosemount","MN",55068,"US","","https://maps.google.com/?cid=628798009912994201","651-423-3672","","ChIJJ3LPFAUz9ocRmSlWYHXwuQg"
"Minnesota History Center","345 W Kellogg Blvd","St Paul","MN",55102,"US","<ul><li>Monday: Closed</li><li>Tuesday: 10:00 AM – 8:00 PM</li><li>Wednesday: 10:00 AM – 5:00 PM</li><li>Thursday: 10:00 AM – 5:00 PM</li><li>Friday: 10:00 AM – 5:00 PM</li><li>Saturday: 10:00 AM – 5:00 PM</li><li>Sunday: 12:00 – 5:00 PM</li></ul>","https://maps.google.com/?cid=9112120486777857345","651-259-3000","http://www.minnesotahistorycenter.org/","ChIJN-BrLq4q9ocRQSX0_E3BdH4"
"Park Grove Library","7900 Hemingway Ave S","Cottage Grove","MN",55016,"US","<ul><li>Monday: 9:30 AM – 8:00 PM</li><li>Tuesday: 9:30 AM – 8:00 PM</li><li>Wednesday: 9:30 AM – 8:00 PM</li><li>Thursday: 9:30 AM – 8:00 PM</li><li>Friday: 9:30 AM – 5:00 PM</li><li>Saturday: 9:30 AM – 5:00 PM</li><li>Sunday: 1:00 – 5:00 PM</li></ul>","https://maps.google.com/?cid=17832762682331868562","651-459-2040","http://www.co.washington.mn.us/Facilities/Facility/Details/4","ChIJl4YM62vQ94cRkq07dC2zevc"
"Arlington Hills Library","1200 Payne Ave","St Paul","MN",55130,"US","<ul><li>Monday: 10:00 AM – 8:00 PM</li><li>Tuesday: 10:00 AM – 8:00 PM</li><li>Wednesday: 10:00 AM – 8:00 PM</li><li>Thursday: 10:00 AM – 8:00 PM</li><li>Friday: 10:00 AM – 5:30 PM</li><li>Saturday: 10:00 AM – 5:30 PM</li><li>Sunday: 1:00 – 5:00 PM</li></ul>","https://maps.google.com/?cid=8706320448907727223","651-632-3870","http://www.sppl.org/about/locations/arlington-hills","ChIJeaT7HD3VslIRd1Hd-VEQ03g"
"School of Law Library","1536 Hewitt Ave","St Paul","MN",55104,"US","<ul><li>Monday: 7:30 AM – 10:00 PM</li><li>Tuesday: 7:30 AM – 10:00 PM</li><li>Wednesday: 7:30 AM – 10:00 PM</li><li>Thursday: 7:30 AM – 10:00 PM</li><li>Friday: 7:30 AM – 6:00 PM</li><li>Saturday: 9:00 AM – 6:00 PM</li><li>Sunday: 9:00 AM – 10:00 PM</li></ul>","https://maps.google.com/?cid=13179396193092266064","651-523-2125","http://lawlibrary.hamline.edu/","ChIJo1fau0Urs1IRUGhmmwKf5rY"
"St. Louis Park Library","3240 Library Ln","Minneapolis","MN",55426,"US","<ul><li>Monday: 9:00 AM – 8:00 PM</li><li>Tuesday: 9:00 AM – 8:00 PM</li><li>Wednesday: 9:00 AM – 5:00 PM</li><li>Thursday: 9:00 AM – 8:00 PM</li><li>Friday: 9:00 AM – 5:00 PM</li><li>Saturday: 9:00 AM – 5:00 PM</li><li>Sunday: 12:00 – 5:00 PM</li></ul>","https://maps.google.com/?cid=5178475566978641424","612-543-6125","http://www.hclib.org/stlouispark","ChIJT3VQyIQg9ocREC7NZxek3Uc"
"Taylors Falls Public Library","473 Bench St","Taylors Falls","MN",55084,"US","","https://maps.google.com/?cid=10592845586116951782","651-465-6905","http://www.taylorsfalls.govoffice.com/","ChIJc6TmtaOaslIR5r4Q8e9YAZM"
"Minneapolis Campus Library","1000 Lasalle Ave","Minneapolis","MN",55403,"US","","https://maps.google.com/?cid=7615389705846554042","651-962-4645","","ChIJK4DzLpQys1IRun0m45ZMr2k"
"Lundquist Library","Bethel Dr","Arden Hills","MN",55112,"US","","https://maps.google.com/?cid=10106188475195427620","","","ChIJ38K0Qxops1IRJIsrkd9kQIw"
"Southdale Library","7001 York Ave S","Edina","MN",55435,"US","<ul><li>Monday: 9:00 AM – 9:00 PM</li><li>Tuesday: 9:00 AM – 9:00 PM</li><li>Wednesday: 9:00 AM – 9:00 PM</li><li>Thursday: 9:00 AM – 9:00 PM</li><li>Friday: 9:00 AM – 5:00 PM</li><li>Saturday: 9:00 AM – 5:00 PM</li><li>Sunday: 12:00 – 5:00 PM</li></ul>","https://maps.google.com/?cid=8986271321859996239","612-543-5900","http://www.hclib.org/southdale","ChIJB3ETmB8k9ocRT7q-6iemtXw"
"St. Bonifacius Library","8624 Kennedy Memorial Dr","St Bonifacius","MN",55375,"US","<ul><li>Monday: 12:00 – 8:00 PM</li><li>Tuesday: Closed</li><li>Wednesday: 12:00 – 8:00 PM</li><li>Thursday: Closed</li><li>Friday: Closed</li><li>Saturday: 9:00 AM – 5:00 PM</li><li>Sunday: Closed</li></ul>","https://maps.google.com/?cid=11606115393453652944","612-543-6100","http://www.hclib.org/about/locations/st-bonifacius","ChIJ__PcfX8A9ocR0Hv_YHU0EaE"
"Hardwood Creek Library","19955 Forest Rd N","Forest Lake","MN",55025,"US","<ul><li>Monday: 9:30 AM – 8:00 PM</li><li>Tuesday: 9:30 AM – 8:00 PM</li><li>Wednesday: 9:30 AM – 8:00 PM</li><li>Thursday: 9:30 AM – 8:00 PM</li><li>Friday: 9:30 AM – 5:00 PM</li><li>Saturday: 9:30 AM – 5:00 PM</li><li>Sunday: 1:00 – 5:00 PM</li></ul>","https://maps.google.com/?cid=9606793525362044678","651-275-7300","http://www.co.washington.mn.us/Facilities/Facility/Details/2","ChIJwTNGvRXdslIRBi-69c8vUoU"
"Carver County Court Services","604 E 4th St","Chaska","MN",55318,"US","","https://maps.google.com/?cid=6826380166213760546","952-361-1400","http://www.co.carver.mn.us/","ChIJ-c5HJ_EP9ocRInbx7JcsvF4"
"Ad Lib Inc","7436 Shannon Dr","Minneapolis","MN",55439,"US","","https://maps.google.com/?cid=15174997816237865603","612-676-2770","","ChIJux18M9Aj9ocRg7ovAB1smNI"
"North Memorial Med Center Library","3300 Oakdale Ave N","Robbinsdale","MN",55422,"US","<ul><li>Monday: 7:30 AM – 5:30 PM</li><li>Tuesday: 7:30 AM – 5:30 PM</li><li>Wednesday: 7:30 AM – 5:30 PM</li><li>Thursday: 7:30 AM – 5:30 PM</li><li>Friday: 7:30 AM – 5:30 PM</li><li>Saturday: Closed</li><li>Sunday: Closed</li></ul>","https://maps.google.com/?cid=17415946500026000435","763-520-5673","https://www.northmemorial.com/library","ChIJW_kdvsMzs1IRM-RBcRHfsfE"
"Marine Branch Library","121 Judd St","Marine on St Croix","MN",55047,"US","","https://maps.google.com/?cid=4910510712315358034","651-433-2820","http://marinecommunitylibrary.org/about-us","ChIJ06C0yS-_slIRUqtO0XmjJUQ"
"University of St Thomas - O'Shaughnessy-Frey Library Center","2115 Summit Ave","St Paul","MN",55105,"US","<ul><li>Monday: 7:30 AM – 2:00 AM</li><li>Tuesday: 7:30 AM – 2:00 AM</li><li>Wednesday: 7:30 AM – 2:00 AM</li><li>Thursday: 7:30 AM – 2:00 AM</li><li>Friday: 7:30 AM – 6:00 PM</li><li>Saturday: 10:00 AM – 6:00 PM</li><li>Sunday: 10:00 AM – 2:00 AM</li></ul>","https://maps.google.com/?cid=17562745001248035078","651-962-5001","http://www.stthomas.edu/libraries","ChIJieF9Ge4p9ocRBhEo-IZnu_M"
"Valley Library","380 St Croix Trail S","Lakeland","MN",55043,"US","<ul><li>Monday: 10:00 AM – 2:00 PM</li><li>Tuesday: 2:00 – 6:00 PM</li><li>Wednesday: 2:00 – 6:00 PM</li><li>Thursday: 2:00 – 6:00 PM</li><li>Friday: 10:00 AM – 2:00 PM</li><li>Saturday: 10:00 AM – 2:00 PM</li><li>Sunday: Closed</li></ul>","https://maps.google.com/?cid=14268921133353431474","651-436-5882","http://www.co.washington.mn.us/Facilities/Facility/Details/5","ChIJn_QZ13Pg94cRsnGYuStkBcY"
"Little Free Library","573 Co Rd A","Hudson","WI",54016,"US","","https://maps.google.com/?cid=5050651659996279481","715-690-2488","http://www.littlefreelibrary.org/","ChIJk7wB-9FU2YARubJQ3uyEF0Y"
"New Prague Library","400 Main St E","New Prague","MN",56071,"US","<ul><li>Monday: 10:00 AM – 8:00 PM</li><li>Tuesday: 10:00 AM – 8:00 PM</li><li>Wednesday: 1:00 – 8:00 PM</li><li>Thursday: 10:00 AM – 8:00 PM</li><li>Friday: Closed</li><li>Saturday: 10:00 AM – 4:00 PM</li><li>Sunday: 1:00 – 5:00 PM</li></ul>","https://maps.google.com/?cid=12125810131384959406","952-758-2391","http://www.scottlib.org/","ChIJtZhCLCVu9ocRroEItxGIR6g"
"Great River Regional Library","8220 Cedar St","Rockford","MN",55373,"US","<ul><li>Monday: 2:00 – 8:00 PM</li><li>Tuesday: 2:00 – 8:00 PM</li><li>Wednesday: 10:00 AM – 6:00 PM</li><li>Thursday: 3:00 – 8:00 PM</li><li>Friday: 3:00 – 6:00 PM</li><li>Saturday: 10:00 AM – 1:00 PM</li><li>Sunday: Closed</li></ul>","https://maps.google.com/?cid=9678957183248022027","763-477-4216","http://www.griver.org/","ChIJJai0AidYs1IRC7q230aQUoY"
"Linden Hills Library","2900 W 43rd St","Minneapolis","MN",55410,"US","<ul><li>Monday: 9:00 AM – 5:00 PM</li><li>Tuesday: 12:00 – 8:00 PM</li><li>Wednesday: 9:00 AM – 5:00 PM</li><li>Thursday: 12:00 – 8:00 PM</li><li>Friday: 9:00 AM – 5:00 PM</li><li>Saturday: 9:00 AM – 5:00 PM</li><li>Sunday: Closed</li></ul>","https://maps.google.com/?cid=8128703116339997104","612-543-6825","http://www.hclib.org/lindenhills","ChIJZZvfnhcn9ocRsGkOpmr0znA"
"The Friends of The Saint Paul Library","325 Cedar St","St Paul","MN",55101,"US","<ul><li>Monday: 10:00 AM – 8:00 PM</li><li>Tuesday: 10:00 AM – 8:00 PM</li><li>Wednesday: 10:00 AM – 8:00 PM</li><li>Thursday: 10:00 AM – 8:00 PM</li><li>Friday: 10:00 AM – 5:30 PM</li><li>Saturday: 10:00 AM – 5:30 PM</li><li>Sunday: 1:00 – 5:00 PM</li></ul>","https://maps.google.com/?cid=7168911561695734052","651-222-3242","http://www.thefriends.org/","ChIJj-UJpE7V94cRJKkQNRUXfWM"
"Engineering & Vendor Library","900 Bush Ave","St Paul","MN",55106,"US","","https://maps.google.com/?cid=11654144621702943703","651-733-1110","","ChIJ_zCdRCnVslIR1xOigcnWu6E"
"Roosevelt Library","4026 28th Ave S","Minneapolis","MN",55406,"US","<ul><li>Monday: Closed</li><li>Tuesday: 12:00 – 8:00 PM</li><li>Wednesday: Closed</li><li>Thursday: 12:00 – 8:00 PM</li><li>Friday: Closed</li><li>Saturday: 9:00 AM – 5:00 PM</li><li>Sunday: Closed</li></ul>","https://maps.google.com/?cid=13286757643187740834","612-543-6700","http://www.hclib.org/roosevelt","ChIJYda3bUQo9ocRomDpIq4LZLg"
"Minnesota State Law Library","25 Rev Dr Martin Luther King Jr Boulevard.","St Paul","MN",55155,"US","","https://maps.google.com/?cid=8971268540873120701","651-296-2775","http://mn.gov/lawlib/","ChIJp00Unqsq9ocRvRthwzRZgHw"
"Quatrefoil Library","1220 E Lake St","Minneapolis","MN",55407,"US","<ul><li>Monday: 7:00 – 9:00 PM</li><li>Tuesday: 7:00 – 9:00 PM</li><li>Wednesday: 7:00 – 9:00 PM</li><li>Thursday: 7:00 – 9:00 PM</li><li>Friday: 7:00 – 9:00 PM</li><li>Saturday: 10:00 AM – 5:00 PM</li><li>Sunday: 1:00 – 5:00 PM</li></ul>","https://maps.google.com/?cid=17152482894619479610","612-729-2543","http://www.qlibrary.org/","ChIJVW9RMAco9ocROg7CnVDcCe4"
"Jola Publications","1828 Jefferson St NE","Minneapolis","MN",55418,"US","<ul><li>Monday: 9:00 AM – 5:00 PM</li><li>Tuesday: 9:00 AM – 5:00 PM</li><li>Wednesday: 9:00 AM – 5:00 PM</li><li>Thursday: 9:00 AM – 5:00 PM</li><li>Friday: 9:00 AM – 5:00 PM</li><li>Saturday: Closed</li><li>Sunday: Closed</li></ul>","https://maps.google.com/?cid=6325554136312275588","612-529-5001","http://www.jolapub.com/","ChIJTbT4kBQys1IRhGJlBvnhyFc"
"Wescott Library","1340 Wescott Rd","St Paul","MN",55123,"US","<ul><li>Monday: 10:00 AM – 8:30 PM</li><li>Tuesday: 10:00 AM – 8:30 PM</li><li>Wednesday: 10:00 AM – 8:30 PM</li><li>Thursday: 10:00 AM – 8:30 PM</li><li>Friday: 10:00 AM – 5:30 PM</li><li>Saturday: 10:00 AM – 5:30 PM</li><li>Sunday: 1:00 – 5:00 PM</li></ul>","https://maps.google.com/?cid=3937735164410481790","651-450-2900","https://www.co.dakota.mn.us/libraries/Pages/default.aspx","ChIJQbp6eu4t9ocRfkxA3kSlpTY"
"Northeast Library","2200 Central Ave NE","Minneapolis","MN",55418,"US","<ul><li>Monday: 9:00 AM – 5:00 PM</li><li>Tuesday: 9:00 AM – 5:00 PM</li><li>Wednesday: 12:00 – 8:00 PM</li><li>Thursday: 12:00 – 8:00 PM</li><li>Friday: 9:00 AM – 5:00 PM</li><li>Saturday: 9:00 AM – 5:00 PM</li><li>Sunday: Closed</li></ul>","https://maps.google.com/?cid=6885660789933244597","612-543-6775","http://www.hclib.org/northeast","ChIJxxnqM-sts1IRtYDOswHIjl8"
"Anoka County Law Library","325 E Main St # E130","Anoka","MN",55303,"US","<ul><li>Monday: 8:00 AM – 4:30 PM</li><li>Tuesday: 8:00 AM – 4:30 PM</li><li>Wednesday: 8:00 AM – 4:30 PM</li><li>Thursday: 8:00 AM – 4:30 PM</li><li>Friday: 8:00 AM – 4:30 PM</li><li>Saturday: Closed</li><li>Sunday: Closed</li></ul>","https://maps.google.com/?cid=16842075498084576722","763-422-7487","https://www.anokacounty.us/159/Law-Library","ChIJ6Q3se5M-s1IR0i2kr24Su-k"
"Little Free Library","759 95th Ln NE","Blaine","MN",55434,"US","<ul><li>Monday: Open 24 hours</li><li>Tuesday: Open 24 hours</li><li>Wednesday: Open 24 hours</li><li>Thursday: Open 24 hours</li><li>Friday: Open 24 hours</li><li>Saturday: Open 24 hours</li><li>Sunday: Open 24 hours</li></ul>","https://maps.google.com/?cid=8760436117295734169","715-690-2488","http://www.littlefreelibrary.org/","ChIJF4HjmeMks1IRmR3q4DtSk3k"
"St Croix Falls Public Library","230 S Washington St","St Croix Falls","WI",54024,"US","<ul><li>Monday: 9:30 AM – 7:00 PM</li><li>Tuesday: 9:30 AM – 7:00 PM</li><li>Wednesday: 9:30 AM – 7:00 PM</li><li>Thursday: 9:30 AM – 7:00 PM</li><li>Friday: 9:30 AM – 5:30 PM</li><li>Saturday: 10:00 AM – 2:00 PM</li><li>Sunday: Closed</li></ul>","https://maps.google.com/?cid=15827620609954292186","715-483-1777","http://www.stcroixfallslibrary.org/","ChIJq04i1LCaslIR2iH6HxYBp9s"
"Libreia 2 Culturas","1515 E Lake St","Minneapolis","MN",55407,"US","","https://maps.google.com/?cid=8014854755232280291","612-728-5419","","ChIJa5MvHAQo9ocR4274c-97Om8"
"Children's Literature Research Collections","222 21st Ave S","Minneapolis","MN",55455,"US","","https://maps.google.com/?cid=6088599218480783896","612-624-4576","http://special.lib.umn.edu/clrc/","ChIJo4P-fGots1IRGKJE_boMf1Q"
"Chisago Lakes Area Library","11754 302nd St","Chisago City","MN",55013,"US","","https://maps.google.com/?cid=7554864825823712866","651-257-2817","","ChIJB_JGbHDuslIRYtZQHYhF2Gg"
"Brooklyn Park Library","8600 Zane Ave N","Brooklyn Park","MN",55443,"US","<ul><li>Monday: 9:00 AM – 8:00 PM</li><li>Tuesday: 9:00 AM – 8:00 PM</li><li>Wednesday: 9:00 AM – 8:00 PM</li><li>Thursday: 9:00 AM – 5:00 PM</li><li>Friday: 9:00 AM – 5:00 PM</li><li>Saturday: 9:00 AM – 5:00 PM</li><li>Sunday: 12:00 – 5:00 PM</li></ul>","https://maps.google.com/?cid=7983370115347915677","612-543-6225","http://www.hclib.org/brooklynpark","ChIJ59j-Fh06s1IRnSPIe9Kgym4"
"Ramsey County Law Library","15 W Kellogg Blvd","St Paul","MN",55102,"US","","https://maps.google.com/?cid=14785154726126274229","651-266-8391","https://www.ramseycounty.us/residents/libraries/law-library","ChIJB2yhCkzV94cRtcbxZ-NrL80"
"Sumner Library","611 Van White Memorial Blvd","Minneapolis","MN",55411,"US","<ul><li>Monday: 12:00 – 8:00 PM</li><li>Tuesday: 9:00 AM – 5:00 PM</li><li>Wednesday: 9:00 AM – 5:00 PM</li><li>Thursday: 12:00 – 8:00 PM</li><li>Friday: 9:00 AM – 5:00 PM</li><li>Saturday: 9:00 AM – 5:00 PM</li><li>Sunday: Closed</li></ul>","https://maps.google.com/?cid=900297873011410808","612-543-6875","http://www.hclib.org/sumner","ChIJrYhILPoys1IReIfiQCWAfgw"
"Farmington Library","508 3rd St","Farmington","MN",55024,"US","<ul><li>Monday: 12:00 – 8:30 PM</li><li>Tuesday: 12:00 – 8:30 PM</li><li>Wednesday: 12:00 – 8:30 PM</li><li>Thursday: 10:00 AM – 5:30 PM</li><li>Friday: 10:00 AM – 5:30 PM</li><li>Saturday: 10:00 AM – 5:30 PM</li><li>Sunday: Closed</li></ul>","https://maps.google.com/?cid=6783847489889034479","651-438-0250","https://www.co.dakota.mn.us/libraries/Pages/default.aspx","ChIJCaqEbV1K9ocR7-BChVkRJV4"
"Metropolitan State University Library and Learning Center","645 E 7th St","St Paul","MN",55106,"US","<ul><li>Monday: 8:00 AM – 11:00 PM</li><li>Tuesday: 8:00 AM – 11:00 PM</li><li>Wednesday: 8:00 AM – 11:00 PM</li><li>Thursday: 8:00 AM – 11:00 PM</li><li>Friday: 8:00 AM – 8:00 PM</li><li>Saturday: 8:00 AM – 8:00 PM</li><li>Sunday: 12:00 – 11:00 PM</li></ul>","https://maps.google.com/?cid=11253205871303821704","651-793-1616","http://www.metrostate.edu/library","ChIJYeudM2DV94cRiIlnLx5rK5w"
"Washington County Library","8595 Central Park Pl","Woodbury","MN",55125,"US","","https://maps.google.com/?cid=1888670224665980534","651-275-8500","http://www.co.washington.mn.us/Library","ChIJbZJrsdDZ94cRdq4SD5DnNRo"
"Sevareid Journalism Library","206 Church St SE","Minneapolis","MN",55455,"US","","https://maps.google.com/?cid=12982568796830690653","612-625-7892","https://www.lib.umn.edu/journalism","ChIJte0l9xYts1IRXe0pP4lZK7Q"
"Ramsey County Libraries: Roseville","2180 Hamline Ave N","Roseville","MN",55113,"US","<ul><li>Monday: 10:00 AM – 9:00 PM</li><li>Tuesday: 10:00 AM – 9:00 PM</li><li>Wednesday: 10:00 AM – 9:00 PM</li><li>Thursday: 10:00 AM – 9:00 PM</li><li>Friday: 10:00 AM – 5:00 PM</li><li>Saturday: 10:00 AM – 5:00 PM</li><li>Sunday: 12:00 – 5:00 PM</li></ul>","https://maps.google.com/?cid=15803126922543495025","651-628-6803","http://www.rclreads.org/","ChIJh7-u0bsrs1IRcfedHjX8T9s"
"Elmer L. Andersen Library","222 21st Ave S","Minneapolis","MN",55455,"US","","https://maps.google.com/?cid=18368686688616184482","612-625-9825","https://www.lib.umn.edu/andersen","ChIJo4P-fGots1IRovppyTiv6v4"
"Southeast Library","1222 4th St SE","Minneapolis","MN",55414,"US","<ul><li>Monday: Closed</li><li>Tuesday: 9:00 AM – 5:00 PM</li><li>Wednesday: Closed</li><li>Thursday: 12:00 – 8:00 PM</li><li>Friday: Closed</li><li>Saturday: 9:00 AM – 5:00 PM</li><li>Sunday: Closed</li></ul>","https://maps.google.com/?cid=10536925661852483339","612-543-6725","http://www.hclib.org/southeast","ChIJTQAOQRIts1IRCz9q-w-uOpI"
"James J. Hill Center","80 W 4th St","St Paul","MN",55102,"US","<ul><li>Monday: 10:00 AM – 5:00 PM</li><li>Tuesday: 10:00 AM – 5:00 PM</li><li>Wednesday: 10:00 AM – 5:00 PM</li><li>Thursday: 10:00 AM – 5:00 PM</li><li>Friday: Closed</li><li>Saturday: Closed</li><li>Sunday: Closed</li></ul>","https://maps.google.com/?cid=3890872432962816201","651-265-5500","http://www.jjhill.org/","ChIJXXpIXEvV94cRycgb8dwn_zU"
"Saint Anthony Library","2941 Pentagon Dr","St Anthony","MN",55418,"US","<ul><li>Monday: 12:00 – 8:00 PM</li><li>Tuesday: 12:00 – 8:00 PM</li><li>Wednesday: 9:00 AM – 5:00 PM</li><li>Thursday: 9:00 AM – 5:00 PM</li><li>Friday: 9:00 AM – 5:00 PM</li><li>Saturday: 9:00 AM – 5:00 PM</li><li>Sunday: Closed</li></ul>","https://maps.google.com/?cid=8265631313008263054","612-543-6075","http://www.hclib.org/stanthony","ChIJJZoHRjEss1IRjv8z0OJrtXI"
"North Branch Area Library","6355 379th St","North Branch","MN",55056,"US","<ul><li>Monday: 10:00 AM – 6:00 PM</li><li>Tuesday: 12:00 – 8:00 PM</li><li>Wednesday: 10:00 AM – 6:00 PM</li><li>Thursday: 12:00 – 8:00 PM</li><li>Friday: 10:00 AM – 6:00 PM</li><li>Saturday: 10:00 AM – 2:00 PM</li><li>Sunday: Closed</li></ul>","https://maps.google.com/?cid=7938840660958002982","651-674-8443","","ChIJ0wpCokX3slIRJj_U9IRtLG4"
"Aero System Engineering Inc Library","358 E Fillmore Ave","St Paul","MN",55107,"US","","https://maps.google.com/?cid=12541025293688216995","651-227-7515","http://www.aseholdings.com/","ChIJLzB6RGrV94cRo515NQ-sCq4"
"Wyoming Area Library","26855 Forest Blvd","Wyoming","MN",55092,"US","","https://maps.google.com/?cid=12772973202907780800","651-462-9001","http://wyominglibraryfriends.org/","ChIJs28aRd7lslIRwNbmNHS3QrE"
"201 Technical Library","3M Center","St Paul","MN",55144,"US","","https://maps.google.com/?cid=191883850434446337","651-575-1300","http://www.3m.com/","ChIJW3FDmeLVslIRAYRHZ1i1qQI"
"Allina Health System Library","800 E 28th St","Minneapolis","MN",55407,"US","<ul><li>Monday: 8:00 AM – 5:00 PM</li><li>Tuesday: 8:00 AM – 5:00 PM</li><li>Wednesday: 8:00 AM – 5:00 PM</li><li>Thursday: 8:00 AM – 5:00 PM</li><li>Friday: 8:00 AM – 5:00 PM</li><li>Saturday: Closed</li><li>Sunday: Closed</li></ul>","https://maps.google.com/?cid=3429958654691548367","612-863-4312","http://www.allinahealth.org/","ChIJz24ca_8n9ocRz5wqRzmpmS8"
"Gramercy Greenhaven Library","600 Greenhaven Dr","Burnsville","MN",55306,"US","","https://maps.google.com/?cid=17265913836963278530","952-223-0105","http://www.gramercygreenhaven.com/","ChIJxUFUL4g59ocRwq6y7ifZnO8"
"Prior Lake Library","16210 Eagle Creek Ave SE","Prior Lake","MN",55372,"US","<ul><li>Monday: 10:00 AM – 8:00 PM</li><li>Tuesday: 10:00 AM – 8:00 PM</li><li>Wednesday: 1:00 – 8:00 PM</li><li>Thursday: 10:00 AM – 8:00 PM</li><li>Friday: 1:00 – 5:00 PM</li><li>Saturday: 10:00 AM – 4:00 PM</li><li>Sunday: Closed</li></ul>","https://maps.google.com/?cid=5095265669870556970","952-447-3375","http://www.scottlib.org/","ChIJFbG2wOUV9ocRKpfggCEFtkY"
"Hosmer Library","347 E 36th St","Minneapolis","MN",55408,"US","<ul><li>Monday: 9:00 AM – 8:00 PM</li><li>Tuesday: 9:00 AM – 8:00 PM</li><li>Wednesday: 9:00 AM – 8:00 PM</li><li>Thursday: 9:00 AM – 5:00 PM</li><li>Friday: 9:00 AM – 5:00 PM</li><li>Saturday: 9:00 AM – 5:00 PM</li><li>Sunday: 12:00 – 5:00 PM</li></ul>","https://maps.google.com/?cid=11249478823061934828","612-543-6900","http://www.hclib.org/hosmer","ChIJ_zIV--gn9ocR7NLiJGMtHpw"
"Washington County Law Library","14949 62nd St N","Stillwater","MN",55082,"US","","https://maps.google.com/?cid=6290355270747085636","651-430-6330","https://www.co.washington.mn.us/lawlibrary","ChIJsWYRvR_KslIRRNvif8rUS1c"
"Minnesota Library Association","1821 University Ave W","St Paul","MN",55104,"US","","https://maps.google.com/?cid=13893003357317581178","651-999-5343","http://www.mnlibraryassociation.org/","ChIJHTcmH1Urs1IRekk5-PHczcA"
"Great River Regional Library","160 Railroad Ave","Delano","MN",55328,"US","<ul><li>Monday: 10:00 AM – 6:00 PM</li><li>Tuesday: 10:00 AM – 8:00 PM</li><li>Wednesday: 1:00 – 8:00 PM</li><li>Thursday: 1:00 – 8:00 PM</li><li>Friday: 1:00 – 6:00 PM</li><li>Saturday: 10:00 AM – 1:00 PM</li><li>Sunday: Closed</li></ul>","https://maps.google.com/?cid=4798307355827067331","763-972-3467","http://www.griver.org/","ChIJSfwP46-ptFIRw1k3Gx4Dl0I"
"Metronet","1619 W Dayton Ave","St Paul","MN",55104,"US","<ul><li>Monday: 9:00 AM – 8:00 PM</li><li>Tuesday: 9:00 AM – 8:00 PM</li><li>Wednesday: 9:00 AM – 8:00 PM</li><li>Thursday: 9:00 AM – 8:00 PM</li><li>Friday: 9:00 AM – 5:30 PM</li><li>Saturday: 9:00 AM – 5:30 PM</li><li>Sunday: 1:00 – 5:00 PM</li></ul>","https://maps.google.com/?cid=14264722524401141022","651-646-0475","http://www.metrolibraries.net/","ChIJc6kEXQUq9ocRHoVx5o559sU"
"Paloranta Mary Jo","14500 Chateau Ln","Burnsville","MN",55306,"US","","https://maps.google.com/?cid=8017836060458224797","952-894-7696","","ChIJZTWqMBY69ocRnQzuqmoTRW8"
"O. Meredith Wilson Library","309 19th Ave S","Minneapolis","MN",55455,"US","","https://maps.google.com/?cid=17315475062653604269","612-624-3321","https://www.lib.umn.edu/","ChIJS_44o0Ets1IRrVGaAtTsTPA"
"Normandale Library","9700 France Ave S","Bloomington","MN",55431,"US","<ul><li>Monday: 7:45 AM – 9:50 PM</li><li>Tuesday: 7:45 AM – 9:50 PM</li><li>Wednesday: 7:45 AM – 9:50 PM</li><li>Thursday: 7:45 AM – 9:50 PM</li><li>Friday: 7:45 AM – 5:50 PM</li><li>Saturday: 9:00 AM – 3:50 PM</li><li>Sunday: Closed</li></ul>","https://maps.google.com/?cid=9709045132600196191","952-358-8290","http://www.normandale.edu/","ChIJQR6y4Jok9ocRX7zefBt1vYY"
"Minneapolis College of Art and Design","2501 Stevens Ave","Minneapolis","MN",55404,"US","","https://maps.google.com/?cid=15215479062634328060","612-874-3700","http://mcad.edu/","ChIJDSb7ErQys1IR_G-2p5c9KNM"
"Shoreview Library","4570 Victoria St N","Shoreview","MN",55126,"US","<ul><li>Monday: 10:00 AM – 9:00 PM</li><li>Tuesday: 1:00 – 9:00 PM</li><li>Wednesday: 1:00 – 9:00 PM</li><li>Thursday: 10:00 AM – 5:00 PM</li><li>Friday: 10:00 AM – 5:00 PM</li><li>Saturday: 10:00 AM – 5:00 PM</li><li>Sunday: 12:00 – 5:00 PM</li></ul>","https://maps.google.com/?cid=17493174508055047750","651-724-6006","http://www.rclreads.org/","ChIJITb4W0Yos1IRRi6KQog9xPI"
"Excelsior Library","337 Water St","Excelsior","MN",55331,"US","<ul><li>Monday: 9:00 AM – 5:00 PM</li><li>Tuesday: 12:00 – 8:00 PM</li><li>Wednesday: 9:00 AM – 5:00 PM</li><li>Thursday: 12:00 – 8:00 PM</li><li>Friday: 9:00 AM – 5:00 PM</li><li>Saturday: 9:00 AM – 5:00 PM</li><li>Sunday: Closed</li></ul>","https://maps.google.com/?cid=1997890952473391434","612-543-6350","http://www.hclib.org/excelsior","ChIJLzwcfdkc9ocRSrEkajzvuRs"
"Bethel Seminary Library","3949 Bethel Dr","Arden Hills","MN",55112,"US","<ul><li>Monday: 8:30 AM – 8:30 PM</li><li>Tuesday: 8:30 AM – 8:30 PM</li><li>Wednesday: 8:30 AM – 5:00 PM</li><li>Thursday: 8:30 AM – 8:30 PM</li><li>Friday: 8:30 AM – 5:00 PM</li><li>Saturday: 10:00 AM – 2:00 PM</li><li>Sunday: Closed</li></ul>","https://maps.google.com/?cid=6817745613189259167","651-638-6184","","ChIJ74YBIQ4ps1IRn58fY4N_nV4"
"Centennial Library","100 Civic Heights Cir","Circle Pines","MN",55014,"US","<ul><li>Monday: 12:00 – 8:00 PM</li><li>Tuesday: 10:00 AM – 6:00 PM</li><li>Wednesday: 12:00 – 8:00 PM</li><li>Thursday: 10:00 AM – 6:00 PM</li><li>Friday: 12:00 – 6:00 PM</li><li>Saturday: 10:00 AM – 5:00 PM</li><li>Sunday: Closed</li></ul>","https://maps.google.com/?cid=3571042293870826459","763-717-3294","http://www.anokacountylibrary.org/","ChIJMZOMhgAns1IR2xMRzAvkjjE"
"R.H. Stafford Library","8595 Central Park Pl","Woodbury","MN",55125,"US","<ul><li>Monday: 9:30 AM – 8:00 PM</li><li>Tuesday: 9:30 AM – 8:00 PM</li><li>Wednesday: 9:30 AM – 8:00 PM</li><li>Thursday: 9:30 AM – 8:00 PM</li><li>Friday: 9:30 AM – 5:00 PM</li><li>Saturday: 9:30 AM – 5:00 PM</li><li>Sunday: 1:00 – 5:00 PM</li></ul>","https://maps.google.com/?cid=3881256102775985805","651-731-1320","http://www.co.washington.mn.us/Facilities/Facility/Details/1","ChIJbZJrsdDZ94cRjZZHmNz93DU"
"Oakdale Library","1010 Heron Ave N","Oakdale","MN",55128,"US","<ul><li>Monday: 9:30 AM – 8:00 PM</li><li>Tuesday: 12:30 – 8:00 PM</li><li>Wednesday: 12:30 – 8:00 PM</li><li>Thursday: 12:30 – 8:00 PM</li><li>Friday: 12:30 – 5:00 PM</li><li>Saturday: 9:30 AM – 5:00 PM</li><li>Sunday: Closed</li></ul>","https://maps.google.com/?cid=13187996471990176497","651-730-0504","http://www.co.washington.mn.us/Facilities/Facility/Details/3","ChIJi4LZfbLSslIR8UoUFOssBbc"
"Mary Ann King Health Sci Library","6401 France Ave S","Minneapolis","MN",55435,"US","","https://maps.google.com/?cid=10454435383485807754","952-924-5005","","ChIJqZad0rom9ocRijzyX5edFZE"
"Osseo Library","415 Central Ave","Osseo","MN",55369,"US","<ul><li>Monday: 12:00 – 8:00 PM</li><li>Tuesday: 9:00 AM – 5:00 PM</li><li>Wednesday: Closed</li><li>Thursday: 9:00 AM – 5:00 PM</li><li>Friday: Closed</li><li>Saturday: Closed</li><li>Sunday: Closed</li></ul>","https://maps.google.com/?cid=18408557316425326906","612-543-5750","http://www.hclib.org/osseo","ChIJiZdWpEs4s1IROiHzuFhVeP8"
"West Seventh Library","265 Oneida St","St Paul","MN",55102,"US","<ul><li>Monday: 12:30 – 8:00 PM</li><li>Tuesday: 11:30 AM – 5:30 PM</li><li>Wednesday: 10:00 AM – 5:30 PM</li><li>Thursday: 12:30 – 8:00 PM</li><li>Friday: 10:00 AM – 5:30 PM</li><li>Saturday: Closed</li><li>Sunday: Closed</li></ul>","https://maps.google.com/?cid=7613818040559436620","651-298-5516","http://www.sppl.org/about/locations/west-7th","ChIJmRpakO4q9ocRTIMBDCu3qWk"
"DeWitt Wallace Library","1600 Grand Ave","St Paul","MN",55105,"US","<ul><li>Monday: 8:00 AM – 1:00 AM</li><li>Tuesday: 8:00 AM – 1:00 AM</li><li>Wednesday: 8:00 AM – 1:00 AM</li><li>Thursday: 8:00 AM – 1:00 AM</li><li>Friday: 8:00 AM – 10:00 PM</li><li>Saturday: 11:00 AM – 10:00 PM</li><li>Sunday: 10:00 AM – 12:00 AM</li></ul>","https://maps.google.com/?cid=17094532786030421672","651-696-6346","http://www.macalester.edu/library/","ChIJN_rFwxkq9ocRqKaciP_6O-0"
"Western Henn County Pioneer","1953 Wayzata Blvd","Long Lake","MN",55356,"US","","https://maps.google.com/?cid=18360449062402442192","952-473-6557","http://www.whcpa-museum.org/","ChIJq_7loptNs1IR0MMm-SRrzf4"
"Inter Library Loan","309 19th Ave S","Minneapolis","MN",55455,"US","","https://maps.google.com/?cid=9105632212020435150","612-624-1806","","ChIJS_44o0Ets1IRzhjVzEC0XX4"
"Biomedical Library","505 Essex St SE","Minneapolis","MN",55455,"US","","https://maps.google.com/?cid=17151055003260772307","612-626-4045","","ChIJafRmPj0ts1IR01-LwKfJBO4"
"St Paul District Tech Library","190 5th St E","St Paul","MN",55101,"US","<ul><li>Monday: 10:00 AM – 8:00 PM</li><li>Tuesday: 10:00 AM – 8:00 PM</li><li>Wednesday: 10:00 AM – 8:00 PM</li><li>Thursday: 10:00 AM – 8:00 PM</li><li>Friday: 10:00 AM – 5:30 PM</li><li>Saturday: 10:00 AM – 5:30 PM</li><li>Sunday: 1:00 – 5:00 PM</li></ul>","https://maps.google.com/?cid=1222953218859524610","651-290-5680","","ChIJkWWY5U_V94cRAuIKG3nN-BA"
"Rice Street Library","1011 Rice St","St Paul","MN",55117,"US","<ul><li>Monday: 12:00 – 8:00 PM</li><li>Tuesday: 10:00 AM – 8:00 PM</li><li>Wednesday: 12:00 – 8:00 PM</li><li>Thursday: 10:00 AM – 8:00 PM</li><li>Friday: 10:00 AM – 5:30 PM</li><li>Saturday: 11:30 AM – 5:00 PM</li><li>Sunday: 1:00 – 5:00 PM</li></ul>","https://maps.google.com/?cid=4127873246084753551","651-558-2223","http://www.sppl.org/about/locations/rice-street","ChIJhYEYeaQqs1IRj2i4ztgmSTk"
"Department of Transportation Library","395 John Ireland Blvd","St Paul","MN",55155,"US","<ul><li>Monday: 8:00 AM – 4:30 PM</li><li>Tuesday: 8:00 AM – 4:30 PM</li><li>Wednesday: 8:00 AM – 4:30 PM</li><li>Thursday: 8:00 AM – 4:30 PM</li><li>Friday: 8:00 AM – 4:30 PM</li><li>Saturday: Closed</li><li>Sunday: Closed</li></ul>","https://maps.google.com/?cid=2651856990389981307","651-366-3791","http://www.dot.state.mn.us/library/","ChIJc_fb0q4q9ocRe9BU8-FJzSQ"
"Wangensteen Historical Library","505 Essex St SE","Minneapolis","MN",55455,"US","<ul><li>Monday: 8:00 AM – 4:30 PM</li><li>Tuesday: 8:00 AM – 4:30 PM</li><li>Wednesday: 8:00 AM – 4:30 PM</li><li>Thursday: 8:00 AM – 4:30 PM</li><li>Friday: 8:00 AM – 4:30 PM</li><li>Saturday: Closed</li><li>Sunday: Closed</li></ul>","https://maps.google.com/?cid=14948024388241630925","612-626-6881","https://hsl.lib.umn.edu/wangensteen","ChIJafRmPj0ts1IRzaYEq_sMcs8"
"James Ford Bell Library","309 19th Ave S","Minneapolis","MN",55455,"US","<ul><li>Monday: 8:30 AM – 4:30 PM</li><li>Tuesday: 8:30 AM – 4:30 PM</li><li>Wednesday: 8:30 AM – 4:30 PM</li><li>Thursday: 8:30 AM – 4:30 PM</li><li>Friday: 8:30 AM – 4:30 PM</li><li>Saturday: Closed</li><li>Sunday: Closed</li></ul>","https://maps.google.com/?cid=3032812188960059863","612-624-1528","http://www.lib.umn.edu/bell","ChIJS_44o0Ets1IR13FwCZ62Fio"
"League of Minnesota Cities","145 University Ave W","St Paul","MN",55103,"US","","https://maps.google.com/?cid=8204281971378906842","651-281-1200","http://www.lmc.org/","ChIJxYhpW6gq9ocR2mYuHfx223E"
"Tartus Library","4601 45th Ave S","Minneapolis","MN",55406,"US","","https://maps.google.com/?cid=15436002033689476102","","","ChIJY40OZagp9ocRBrxE8hCyN9Y"
"Penn Lake Library","8800 Penn Ave S","Minneapolis","MN",55431,"US","<ul><li>Monday: 9:00 AM – 8:00 PM</li><li>Tuesday: 9:00 AM – 8:00 PM</li><li>Wednesday: 9:00 AM – 8:00 PM</li><li>Thursday: 9:00 AM – 5:00 PM</li><li>Friday: 9:00 AM – 5:00 PM</li><li>Saturday: 9:00 AM – 5:00 PM</li><li>Sunday: 12:00 – 5:00 PM</li></ul>","https://maps.google.com/?cid=11601324464299472269","612-543-5800","http://www.hclib.org/pennlake","ChIJMbUF6Vkk9ocRjXWeQiIvAKE"
"Ramsey County Library - New Brighton","400 10th St NW","New Brighton","MN",55112,"US","<ul><li>Monday: 10:00 AM – 5:00 PM</li><li>Tuesday: 10:00 AM – 8:00 PM</li><li>Wednesday: 1:00 – 8:00 PM</li><li>Thursday: 10:00 AM – 5:00 PM</li><li>Friday: 10:00 AM – 5:00 PM</li><li>Saturday: 10:00 AM – 5:00 PM</li><li>Sunday: Closed</li></ul>","https://maps.google.com/?cid=12558095531549992938","651-724-6002","http://www.rclreads.org/","ChIJ6UpL90gps1IR6id1rVlRR64"
"Dresser Library","117 Central Ave S","Dresser","WI",54009,"US","","https://maps.google.com/?cid=17458265624023903124","715-755-2944","http://dresserpubliclibrary.org/","ChIJS2gObj2aslIRlKtbUhY4SPI"
"Medical Center Library","1 Veterans Dr","Minneapolis","MN",55417,"US","","https://maps.google.com/?cid=11480276043329657656","612-725-2000","https://www.nlm.nih.gov/","ChIJgSU5jhYp9ocROFsXfjwiUp8"
"Magrath Library","1984 Buford Ave","St Paul","MN",55108,"US","","https://maps.google.com/?cid=18134505956937284496","612-625-5000","https://www.lib.umn.edu/magrath","ChIJLywy0oIss1IRkLtzTBa1qvs"
"Highland Park Library","1974 Ford Pkwy","St Paul","MN",55116,"US","<ul><li>Monday: 10:00 AM – 8:00 PM</li><li>Tuesday: 10:00 AM – 8:00 PM</li><li>Wednesday: 10:00 AM – 8:00 PM</li><li>Thursday: 10:00 AM – 8:00 PM</li><li>Friday: 10:00 AM – 5:30 PM</li><li>Saturday: 10:00 AM – 5:30 PM</li><li>Sunday: 1:00 – 5:00 PM</li></ul>","https://maps.google.com/?cid=10481093277195743323","651-695-3700","http://www.sppl.org/about/locations/highland-park","ChIJnW6rtHgp9ocRW7D87M1SdJE"
"Infofind Research & Information Services","501 SE Main St","Minneapolis","MN",55414,"US","","https://maps.google.com/?cid=12391048329472157852","612-432-3081","http://infofindresearch.com/","ChIJSw5sMHAts1IRnKjiGM7Y9as"
"Augsburg Park Library","7100 Nicollet Ave S","Richfield","MN",55423,"US","<ul><li>Monday: 9:00 AM – 8:00 PM</li><li>Tuesday: 9:00 AM – 8:00 PM</li><li>Wednesday: 9:00 AM – 8:00 PM</li><li>Thursday: 9:00 AM – 5:00 PM</li><li>Friday: 9:00 AM – 5:00 PM</li><li>Saturday: 9:00 AM – 5:00 PM</li><li>Sunday: 12:00 – 5:00 PM</li></ul>","https://maps.google.com/?cid=5124612134458891388","612-543-6200","http://www.hclib.org/augsburgpark","ChIJ8VYA_N0l9ocRfBwUvpVHHkc"
"Bernsten Library","3003 Snelling Avenue North","St Paul","MN",55113,"US","","https://maps.google.com/?cid=4710121243726867543","651-286-7708","http://www.unwsp.edu/web/library/","ChIJdZZnV1wps1IRV2xc3VC2XUE"
"Ramsey County Library in North St. Paul","2290 North 1st Street","North St Paul","MN",55109,"US","<ul><li>Monday: 10:00 AM – 5:00 PM</li><li>Tuesday: 3:00 – 8:00 PM</li><li>Wednesday: 10:00 AM – 5:00 PM</li><li>Thursday: 3:00 – 8:00 PM</li><li>Friday: Closed</li><li>Saturday: 10:00 AM – 5:00 PM</li><li>Sunday: Closed</li></ul>","https://maps.google.com/?cid=2788184440803789966","651-747-2700","http://www.rclreads.org/","ChIJyxbvkLvTslIRjoxh-vmesSY"
"Learning Resource Center","117 Pleasant St SE","Minneapolis","MN",55455,"US","","https://maps.google.com/?cid=7241292067391962160","612-624-1584","","ChIJSwWpShQts1IRMHzA78Q8fmQ"
"Lindell Library","630 22nd Ave S","Minneapolis","MN",55454,"US","<ul><li>Monday: 7:45 AM – 12:00 AM</li><li>Tuesday: 7:45 AM – 12:00 AM</li><li>Wednesday: 7:45 AM – 12:00 AM</li><li>Thursday: 7:45 AM – 12:00 AM</li><li>Friday: 7:45 AM – 7:00 PM</li><li>Saturday: 10:00 AM – 6:00 PM</li><li>Sunday: 2:00 PM – 12:00 AM</li></ul>","https://maps.google.com/?cid=5732312303859092769","612-330-1604","http://library.augsburg.edu/","ChIJDR5bGEcts1IRIU0fVatDjU8"
"Administrative Financial Support (AFS)","222 21st Ave S","Minneapolis","MN",55455,"US","","https://maps.google.com/?cid=17589681984058771092","612-624-2860","http://www.minitex.umn.edu/About/Units/Afs.aspx","ChIJo4P-fGots1IRlEbpA5IaG_Q"
"Columbia Heights Library","65 Central Ave NE","Columbia Heights","MN",55421,"US","","https://maps.google.com/?cid=14198869788729736862","","http://www.ci.columbia-heights.mn.us/index.aspx?nid=624","ChIJR8IrOW0us1IRnv5CEdiEDMU"
"Great River Regional Library","11500 Sherburne Ave","Becker","MN",55308,"US","<ul><li>Monday: 2:00 – 8:00 PM</li><li>Tuesday: 10:00 AM – 6:00 PM</li><li>Wednesday: 2:00 – 6:00 PM</li><li>Thursday: 2:00 – 8:00 PM</li><li>Friday: 2:00 – 5:00 PM</li><li>Saturday: 10:00 AM – 1:00 PM</li><li>Sunday: Closed</li></ul>","https://maps.google.com/?cid=4821576114404143236","763-261-4454","http://www.griver.org/","ChIJU0-GaGqDtFIRhDCRJO6t6UI"
"Maplewood Public Library","3025 Southlawn Dr","Maplewood","MN",55109,"US","<ul><li>Monday: 10:00 AM – 9:00 PM</li><li>Tuesday: 10:00 AM – 9:00 PM</li><li>Wednesday: 10:00 AM – 9:00 PM</li><li>Thursday: 10:00 AM – 9:00 PM</li><li>Friday: 10:00 AM – 5:00 PM</li><li>Saturday: 10:00 AM – 5:00 PM</li><li>Sunday: 12:00 – 5:00 PM</li></ul>","https://maps.google.com/?cid=16215231956628492982","651-704-2033","http://www.rclreads.org/","ChIJyWcXZwDUslIRtlJndY0TCOE"
"Knowteria","40 S 7th St","Minneapolis","MN",55402,"US","","https://maps.google.com/?cid=13716400476109412854","612-719-1196","http://www.knowteria.com/","ChIJmda725Ays1IR9hmAd49xWr4"
"Johnsville Library","12461 Oak Park Blvd NE","Blaine","MN",55434,"US","<ul><li>Monday: 12:00 – 8:00 PM</li><li>Tuesday: 10:00 AM – 6:00 PM</li><li>Wednesday: 12:00 – 8:00 PM</li><li>Thursday: 10:00 AM – 6:00 PM</li><li>Friday: 12:00 – 6:00 PM</li><li>Saturday: 10:00 AM – 5:00 PM</li><li>Sunday: Closed</li></ul>","https://maps.google.com/?cid=13736299200776599130","763-767-3853","http://www.anokacountylibrary.org/","ChIJAXANkZ8js1IRWnbFVlgjob4"
"US Appeals Court Library","300 S 4th St","Minneapolis","MN",55415,"US","","https://maps.google.com/?cid=1405095346026047780","612-664-5830","http://www.lb8.uscourts.gov/aboutus/minneapolis.htm","ChIJu5JeQZwys1IRJOlvz8XmfxM"
"Waconia Library","217 S Vine St","Waconia","MN",55387,"US","","https://maps.google.com/?cid=743369593454808091","952-442-4714","http://www.carverlib.org/","ChIJKVpYZTP89YcRG0yz6rT6UAo"
"​Scott County Library Administration","1615 Weston Ct","Shakopee","MN",55379,"US","<ul><li>Monday: 8:00 AM – 4:30 PM</li><li>Tuesday: 8:00 AM – 4:30 PM</li><li>Wednesday: 8:00 AM – 4:30 PM</li><li>Thursday: 8:00 AM – 4:30 PM</li><li>Friday: 8:00 AM – 4:30 PM</li><li>Saturday: Closed</li><li>Sunday: Closed</li></ul>","https://maps.google.com/?cid=8806434469471104496","952-496-8010","http://www.scottlib.org/","ChIJG-Qqp8kQ9ocR8K2U0n29Nno"
"Maple Plain Library","5184 Main St E","Maple Plain","MN",55359,"US","<ul><li>Monday: Closed</li><li>Tuesday: 12:00 – 8:00 PM</li><li>Wednesday: Closed</li><li>Thursday: 9:00 AM – 5:00 PM</li><li>Friday: Closed</li><li>Saturday: 9:00 AM – 5:00 PM</li><li>Sunday: Closed</li></ul>","https://maps.google.com/?cid=8343561112641781746","612-543-5700","http://www.hclib.org/mapleplain","ChIJzZPcCeZTs1IR8r_GOKBIynM"
"Economics Research Library","","Minneapolis","MN",55454,"US","","https://maps.google.com/?cid=11360409126160609433","","http://www.econ.umn.edu/library/","ChIJoRf2ZEEts1IRmbDoA-lHqJ0"
"Woodbury Branch Library","8595 Central Park Pl","St Paul","MN",55125,"US","","https://maps.google.com/?cid=8408423312217971139","651-731-1320","","ChIJCUo9ztDZ94cRw5nd5XO4sHQ"
"Wayzata Library","620 Rice St E","Wayzata","MN",55391,"US","<ul><li>Monday: 12:00 – 8:00 PM</li><li>Tuesday: 9:00 AM – 5:00 PM</li><li>Wednesday: 12:00 – 8:00 PM</li><li>Thursday: 9:00 AM – 5:00 PM</li><li>Friday: 9:00 AM – 5:00 PM</li><li>Saturday: 9:00 AM – 5:00 PM</li><li>Sunday: Closed</li></ul>","https://maps.google.com/?cid=579242621516386074","612-543-6150","http://www.hclib.org/wayzata","ChIJX1CfUJpMs1IRGg9AZhjiCQg"
"Pleasant Hill Library","1490 S Frontage Rd","Hastings","MN",55033,"US","<ul><li>Monday: 10:00 AM – 8:30 PM</li><li>Tuesday: 10:00 AM – 8:30 PM</li><li>Wednesday: 10:00 AM – 8:30 PM</li><li>Thursday: 10:00 AM – 8:30 PM</li><li>Friday: 10:00 AM – 5:30 PM</li><li>Saturday: 10:00 AM – 5:30 PM</li><li>Sunday: 1:00 – 5:00 PM</li></ul>","https://maps.google.com/?cid=7771228189293251356","651-438-0200","https://www.co.dakota.mn.us/libraries/HoursLocations/PleasantHill","ChIJpb9FpZ3G94cRHItTS93y2Gs"
"South St. Paul Public Library","106 3rd Ave N","South St Paul","MN",55075,"US","<ul><li>Monday: 9:00 AM – 8:00 PM</li><li>Tuesday: 9:00 AM – 6:00 PM</li><li>Wednesday: 9:00 AM – 6:00 PM</li><li>Thursday: 9:00 AM – 8:00 PM</li><li>Friday: 9:00 AM – 6:00 PM</li><li>Saturday: 10:00 AM – 4:00 PM</li><li>Sunday: Closed</li></ul>","https://maps.google.com/?cid=2097696933420542377","651-554-3240","http://www.southstpaul.org/library","ChIJwdWdxwzU94cRqSn1Mj-EHB0"
"InfoNOW @ the Univeresity of Minnesota Libraries","505 Essex St SE","Minneapolis","MN",55455,"US","<ul><li>Monday: 8:00 AM – 5:00 PM</li><li>Tuesday: 8:00 AM – 5:00 PM</li><li>Wednesday: 8:00 AM – 5:00 PM</li><li>Thursday: 8:00 AM – 5:00 PM</li><li>Friday: 8:00 AM – 5:00 PM</li><li>Saturday: Closed</li><li>Sunday: Closed</li></ul>","https://maps.google.com/?cid=3319745948783619382","612-626-3940","http://www.lib.umn.edu/infonow","ChIJO7OLOz0ts1IRNi3KBVobEi4"
"Library","","Minneapolis","MN",NA,"US","","https://maps.google.com/?cid=12727743685683538803","","","ChIJmT1DprYys1IRc2tjmXIHorA"
"Ostfriesland Genealogical","1185 Concord St N","South St Paul","MN",55075,"US","","https://maps.google.com/?cid=6117651691819788011","651-451-6472","http://www.ogsa.us/","ChIJscyUllvU94cR62Z8Ds1D5lQ"
"Veterinary Medical Library","1971 Commonwealth Ave","St Paul","MN",55108,"US","<ul><li>Monday: 8:00 AM – 5:00 PM</li><li>Tuesday: 8:00 AM – 5:00 PM</li><li>Wednesday: 8:00 AM – 5:00 PM</li><li>Thursday: 8:00 AM – 5:00 PM</li><li>Friday: 8:00 AM – 5:00 PM</li><li>Saturday: Closed</li><li>Sunday: Closed</li></ul>","https://maps.google.com/?cid=15115396759255163805","612-624-4281","https://hsl.lib.umn.edu/vetmed","ChIJv24oTJwss1IRnaN-ikStxNE"
"Hamline Midway Library","","St Paul","MN",55104,"US","<ul><li>Monday: 12:00 – 8:00 PM</li><li>Tuesday: 10:00 AM – 8:00 PM</li><li>Wednesday: 12:00 – 8:00 PM</li><li>Thursday: 10:00 AM – 8:00 PM</li><li>Friday: 10:00 AM – 5:30 PM</li><li>Saturday: 11:30 AM – 5:00 PM</li><li>Sunday: Closed</li></ul>","https://maps.google.com/?cid=921227838835508039","651-642-0293","http://www.sppl.org/about/locations/hamline-midway","ChIJvfMQWE4rs1IRR8P9qtbbyAw"
"Rogers Library","21300 John Milless Dr","Rogers","MN",55374,"US","<ul><li>Monday: 12:00 – 8:00 PM</li><li>Tuesday: 9:00 AM – 5:00 PM</li><li>Wednesday: 9:00 AM – 5:00 PM</li><li>Thursday: 12:00 – 8:00 PM</li><li>Friday: 9:00 AM – 5:00 PM</li><li>Saturday: 9:00 AM – 5:00 PM</li><li>Sunday: Closed</li></ul>","https://maps.google.com/?cid=12742480648576533473","612-543-6050","http://www.hclib.org/rogers","ChIJ2WBMIMFDs1IR4YOxJ6Ni1rA"
"Minnetonka Library","17524 Excelsior Blvd","Minnetonka","MN",55345,"US","<ul><li>Monday: 12:00 – 8:00 PM</li><li>Tuesday: 12:00 – 8:00 PM</li><li>Wednesday: 9:00 AM – 5:00 PM</li><li>Thursday: 9:00 AM – 5:00 PM</li><li>Friday: 9:00 AM – 5:00 PM</li><li>Saturday: 9:00 AM – 5:00 PM</li><li>Sunday: Closed</li></ul>","https://maps.google.com/?cid=3088964509187137630","612-543-5725","http://www.hclib.org/minnetonka","ChIJ3x8T1yoc9ocRXmDj5do03io"
"Hopkins Library","22 11th Ave N","Hopkins","MN",55343,"US","<ul><li>Monday: 9:00 AM – 8:00 PM</li><li>Tuesday: 9:00 AM – 8:00 PM</li><li>Wednesday: 9:00 AM – 8:00 PM</li><li>Thursday: 9:00 AM – 5:00 PM</li><li>Friday: 9:00 AM – 5:00 PM</li><li>Saturday: 9:00 AM – 5:00 PM</li><li>Sunday: 12:00 – 5:00 PM</li></ul>","https://maps.google.com/?cid=2229347854248410103","612-543-6400","http://www.hclib.org/hopkins","ChIJpZ3rBiQg9ocR93tB1Q888B4"
"Max Shapiro Memorial Library","5224 W 26th St","St Louis Park","MN",55416,"US","","https://maps.google.com/?cid=12188221018167966399","952-920-3512","http://www.bethelsynagogue.org/","ChIJ2QJer640s1IRv_rZp3BCJak"
"Inver Glen Library","8098 Blaine Ave E","Inver Grove Heights","MN",55076,"US","<ul><li>Monday: 12:00 – 8:30 PM</li><li>Tuesday: 12:00 – 8:30 PM</li><li>Wednesday: 12:00 – 8:30 PM</li><li>Thursday: 10:00 AM – 5:30 PM</li><li>Friday: 10:00 AM – 5:30 PM</li><li>Saturday: 10:00 AM – 5:30 PM</li><li>Sunday: Closed</li></ul>","https://maps.google.com/?cid=9561927095676505169","651-554-6840","https://www.co.dakota.mn.us/libraries/HoursLocations/InverGlen","ChIJhXvAGlzS94cRUQz7QQjKsoQ"
"Us Library","316 Robert St N","St Paul","MN",55101,"US","","https://maps.google.com/?cid=6207405854920947792","651-848-1320","","ChIJdVXXCE_V94cRUDg-n7wiJVY"
"Jordan Library","275 Creek Ln S","Jordan","MN",55352,"US","<ul><li>Monday: 1:00 – 8:00 PM</li><li>Tuesday: 10:00 AM – 5:00 PM</li><li>Wednesday: 1:00 – 8:00 PM</li><li>Thursday: 10:00 AM – 5:00 PM</li><li>Friday: Closed</li><li>Saturday: 10:00 AM – 2:00 PM</li><li>Sunday: Closed</li></ul>","https://maps.google.com/?cid=17812295518547750490","952-496-8050","http://www.scottlib.org/","ChIJh5XKMekM9ocRWi5SiWb8Mfc"
"Hawkeye","2909 Hennepin Ave","Minneapolis","MN",55408,"US","","https://maps.google.com/?cid=15939945175971138677","612-822-2960","http://www.hawkeyeww.com/","ChIJ1Zpk0IEn9ocRdQz2IK8PNt0"
"Lexington Library","461 Dale St N","St Paul","MN",55103,"US","<ul><li>Monday: 10:00 AM – 8:00 PM</li><li>Tuesday: 10:00 AM – 8:00 PM</li><li>Wednesday: 10:00 AM – 8:00 PM</li><li>Thursday: 10:00 AM – 8:00 PM</li><li>Friday: 10:00 AM – 5:30 PM</li><li>Saturday: 10:00 AM – 5:30 PM</li><li>Sunday: 1:00 – 5:00 PM</li></ul>","https://maps.google.com/?cid=10791635248868934732","651-642-0359","http://www.sppl.org/","ChIJZXvNH50q9ocRTMRqEhWXw5U"
"Roseville Information Center","2470 Highcrest Rd","Roseville","MN",55113,"US","","https://maps.google.com/?cid=11526556997411826241","651-635-7211","","ChIJ_4bFaD4ss1IRQWoG0oSO9p8"
"Art Reference Library","2400 3rd Ave S","Minneapolis","MN",55404,"US","","https://maps.google.com/?cid=1943905863409517917","612-870-3116","","ChIJT0k6WbEys1IRXcVSYRUk-ho"
"Minnesota Historical Society","345 W Kellogg Blvd","St Paul","MN",55102,"US","<ul><li>Monday: Closed</li><li>Tuesday: 9:00 AM – 8:00 PM</li><li>Wednesday: 9:00 AM – 4:00 PM</li><li>Thursday: 9:00 AM – 4:00 PM</li><li>Friday: 9:00 AM – 4:00 PM</li><li>Saturday: 9:00 AM – 4:00 PM</li><li>Sunday: Closed</li></ul>","https://maps.google.com/?cid=12889467208932015653","651-259-3000","http://www.mnhs.org/","ChIJN-BrLq4q9ocRJT5wnCKW4LI"
"Thomson Reuters","610 Opperman Dr","St Paul","MN",55123,"US","<ul><li>Monday: Open 24 hours</li><li>Tuesday: Open 24 hours</li><li>Wednesday: Open 24 hours</li><li>Thursday: Open 24 hours</li><li>Friday: Open 24 hours</li><li>Saturday: Open 24 hours</li><li>Sunday: Open 24 hours</li></ul>","https://maps.google.com/?cid=17602107885577031037","651-687-7000","http://www.thomsonreuters.com/","ChIJd4u5x0At9ocRfc3rqdw_R_Q"
"Rosemount's Box of Awesome","4091 156th St W","Rosemount","MN",55068,"US","<ul><li>Monday: Open 24 hours</li><li>Tuesday: Open 24 hours</li><li>Wednesday: Open 24 hours</li><li>Thursday: Open 24 hours</li><li>Friday: Open 24 hours</li><li>Saturday: Open 24 hours</li><li>Sunday: Open 24 hours</li></ul>","https://maps.google.com/?cid=3323268642467130301","","https://m.facebook.com/RosemountBoxofAwesome/","ChIJqzCYHXA09ocRvatyDzmfHi4"
"Watertown Library","309 Lewis Ave S","Watertown","MN",55388,"US","","https://maps.google.com/?cid=7103989667692597114","952-955-2939","https://www.carverlib.org/SitePages/watertown.aspx","ChIJ57DAJO2stFIRes_c1vZwlmI"
"Burnhaven Library","1101 County Rd 42 W","Burnsville","MN",55306,"US","<ul><li>Monday: 10:00 AM – 8:30 PM</li><li>Tuesday: 10:00 AM – 8:30 PM</li><li>Wednesday: 10:00 AM – 8:30 PM</li><li>Thursday: 10:00 AM – 8:30 PM</li><li>Friday: 10:00 AM – 5:30 PM</li><li>Saturday: 10:00 AM – 5:30 PM</li><li>Sunday: 1:00 – 5:00 PM</li></ul>","https://maps.google.com/?cid=14875300809426876192","952-891-0300","https://www.co.dakota.mn.us/libraries/HoursLocations/Burnhaven","ChIJJXj-lTU69ocRIDf4AEavb84"
"Franklin Library","1314 E Franklin Ave","Minneapolis","MN",55404,"US","<ul><li>Monday: 9:00 AM – 5:00 PM</li><li>Tuesday: 9:00 AM – 8:00 PM</li><li>Wednesday: 9:00 AM – 8:00 PM</li><li>Thursday: 9:00 AM – 8:00 PM</li><li>Friday: 9:00 AM – 5:00 PM</li><li>Saturday: 9:00 AM – 5:00 PM</li><li>Sunday: 12:00 – 5:00 PM</li></ul>","https://maps.google.com/?cid=4039514924517312152","612-543-6925","http://www.hclib.org/franklin","ChIJh3OjYVcts1IRmEa-7Gs9Dzg"
"Andersen Horticultural Library","3675 Arboretum Dr","Chaska","MN",55318,"US","<ul><li>Monday: 10:00 AM – 6:00 PM</li><li>Tuesday: 10:00 AM – 6:00 PM</li><li>Wednesday: 10:00 AM – 6:00 PM</li><li>Thursday: 10:00 AM – 6:00 PM</li><li>Friday: 10:00 AM – 6:00 PM</li><li>Saturday: 10:00 AM – 6:00 PM</li><li>Sunday: 10:00 AM – 6:00 PM</li></ul>","https://maps.google.com/?cid=5619053874983349930","952-443-1400","http://www.arboretum.umn.edu/","ChIJsfSOI4QE9ocRqi4qcLrj-k0"
"Merriam Park Library","1831 Marshall Ave","St Paul","MN",55104,"US","<ul><li>Monday: 12:00 – 8:00 PM</li><li>Tuesday: 10:00 AM – 8:00 PM</li><li>Wednesday: 12:00 – 8:00 PM</li><li>Thursday: 10:00 AM – 8:00 PM</li><li>Friday: 10:00 AM – 5:30 PM</li><li>Saturday: 11:30 AM – 5:00 PM</li><li>Sunday: 1:00 – 5:00 PM</li></ul>","https://maps.google.com/?cid=16725221688255363024","651-642-0385","http://www.sppl.org/about/locations/merriam-park","ChIJV6rOhgIq9ocR0Lce7oLsG-g"
"Dorsey & Whitney Law Library","50 South 6th St","Minneapolis","MN",55402,"US","","https://maps.google.com/?cid=4891158429002956919","612-340-2613","","ChIJ-zwihZAys1IRdwDhPK3i4EM"
"Chalmer Davee Library","330 E Cascade Ave","River Falls","WI",54022,"US","","https://maps.google.com/?cid=18177383047269518124","715-425-3321","http://www.uwrf.edu/library/","ChIJz7LqfSnl94cRLAu11pIJQ_w"
"Great River Regional Library","13020 Orono Pkwy","Elk River","MN",55330,"US","<ul><li>Monday: 10:00 AM – 8:00 PM</li><li>Tuesday: 12:00 – 8:00 PM</li><li>Wednesday: 10:00 AM – 8:00 PM</li><li>Thursday: 12:00 – 8:00 PM</li><li>Friday: 10:00 AM – 5:00 PM</li><li>Saturday: 9:00 AM – 2:00 PM</li><li>Sunday: Closed</li></ul>","https://maps.google.com/?cid=12703213053327500769","763-441-1641","http://www.griver.org/","ChIJ2ZAXg8Nos1IR4eWwrffgSrA"
"Great River Regional Library","200 W 6th St","Monticello","MN",55362,"US","<ul><li>Monday: 10:00 AM – 8:00 PM</li><li>Tuesday: 1:00 – 8:00 PM</li><li>Wednesday: 10:00 AM – 6:00 PM</li><li>Thursday: 1:00 – 8:00 PM</li><li>Friday: 10:00 AM – 5:00 PM</li><li>Saturday: 10:00 AM – 2:00 PM</li><li>Sunday: Closed</li></ul>","https://maps.google.com/?cid=15557112982199240643","763-295-2322","http://www.griver.org/","ChIJmfAc1RqetFIRw4eaCtX35dc"
"Springboard for the Arts","308 E Prince St","St Paul","MN",55101,"US","<ul><li>Monday: 9:30 AM – 5:00 PM</li><li>Tuesday: 9:30 AM – 5:00 PM</li><li>Wednesday: 9:30 AM – 5:00 PM</li><li>Thursday: 9:30 AM – 5:00 PM</li><li>Friday: 9:30 AM – 5:00 PM</li><li>Saturday: Closed</li><li>Sunday: Closed</li></ul>","https://maps.google.com/?cid=14151996173542001976","651-292-4381","http://springboardforthearts.org/","ChIJG_6QTFvV94cROI2oEor9ZcQ"
"East Lake Library","2727 E Lake St","Minneapolis","MN",55406,"US","<ul><li>Monday: 9:00 AM – 8:00 PM</li><li>Tuesday: 9:00 AM – 8:00 PM</li><li>Wednesday: 9:00 AM – 5:00 PM</li><li>Thursday: 9:00 AM – 8:00 PM</li><li>Friday: 9:00 AM – 5:00 PM</li><li>Saturday: 9:00 AM – 5:00 PM</li><li>Sunday: 12:00 – 5:00 PM</li></ul>","https://maps.google.com/?cid=17594089538705140438","612-543-8425","http://www.hclib.org/about/locations","ChIJ05X2ZyQo9ocR1qrvzDfDKvQ"
"Merriam Park Library","1831 Marshall Ave","St Paul","MN",55104,"US","<ul><li>Monday: 12:00 – 8:00 PM</li><li>Tuesday: 10:00 AM – 8:00 PM</li><li>Wednesday: 12:00 – 8:00 PM</li><li>Thursday: 10:00 AM – 8:00 PM</li><li>Friday: 10:00 AM – 5:30 PM</li><li>Saturday: 11:30 AM – 5:00 PM</li><li>Sunday: 1:00 – 5:00 PM</li></ul>","https://maps.google.com/?cid=9723357426744111418","651-642-0385","http://www.sppl.org/about/locations/merriam-park","ChIJnW6rtHgp9ocROjE9JRBO8IY"
"Saint Paul Public Library - Hamline Midway","1558 W Minnehaha Ave","St Paul","MN",55104,"US","<ul><li>Monday: 12:00 – 8:00 PM</li><li>Tuesday: 10:00 AM – 5:30 PM</li><li>Wednesday: 12:00 – 8:00 PM</li><li>Thursday: 10:00 AM – 5:30 PM</li><li>Friday: 10:00 AM – 5:30 PM</li><li>Saturday: 11:30 AM – 5:00 PM</li><li>Sunday: Closed</li></ul>","https://maps.google.com/?cid=4216580411140207134","651-642-0293","http://www.sppl.org/about/locations/hamline-midway","ChIJvfMQWE4rs1IRHvLhJItNhDo"
"White Bear Lake Library","2150 2nd St","White Bear Lake","MN",55110,"US","<ul><li>Monday: 10:00 AM – 8:00 PM</li><li>Tuesday: 1:00 – 8:00 PM</li><li>Wednesday: 1:00 – 8:00 PM</li><li>Thursday: 10:00 AM – 5:00 PM</li><li>Friday: 10:00 AM – 5:00 PM</li><li>Saturday: 10:00 AM – 5:00 PM</li><li>Sunday: Closed</li></ul>","https://maps.google.com/?cid=5767599228780725073","651-724-6007","http://www.rclreads.org/about/locations/rcl-white-bear-lake","ChIJF5thFejQslIRUcNKxvCgClA"
"Northtown Library","711 County Hwy 10 Frontage Rd","Blaine","MN",55434,"US","","https://maps.google.com/?cid=17636918370038229369","763-717-3267","http://www.anoka.lib.mn.us/about/locations/acl-northtown","ChIJ15AwrRYls1IReamwKtDrwvQ"
"Mississippi Library","410 Mississippi St NE","Fridley","MN",55432,"US","<ul><li>Monday: 12:00 – 8:00 PM</li><li>Tuesday: 10:00 AM – 6:00 PM</li><li>Wednesday: 12:00 – 8:00 PM</li><li>Thursday: 10:00 AM – 6:00 PM</li><li>Friday: 12:00 – 6:00 PM</li><li>Saturday: 10:00 AM – 5:00 PM</li><li>Sunday: Closed</li></ul>","https://maps.google.com/?cid=885043222890948910","763-571-1934","http://www.anokacountylibrary.org/","ChIJ-Zbstukvs1IRLilIPx9OSAw"
"Stillwater Public Library","224 3rd St N","Stillwater","MN",55082,"US","<ul><li>Monday: 10:00 AM – 8:00 PM</li><li>Tuesday: 10:00 AM – 8:00 PM</li><li>Wednesday: 10:00 AM – 8:00 PM</li><li>Thursday: 10:00 AM – 8:00 PM</li><li>Friday: 10:00 AM – 5:00 PM</li><li>Saturday: 10:00 AM – 5:00 PM</li><li>Sunday: 1:00 – 5:00 PM</li></ul>","https://maps.google.com/?cid=7819645355586683125","651-275-4338","http://www.stillwaterlibrary.org/","ChIJWwFop5XJslIR9QBHSQX2hGw"
"Hmong Resource Center Library","375 University Ave W","St Paul","MN",55103,"US","<ul><li>Monday: 9:00 AM – 6:00 PM</li><li>Tuesday: 9:00 AM – 6:00 PM</li><li>Wednesday: 9:00 AM – 6:00 PM</li><li>Thursday: 9:00 AM – 6:00 PM</li><li>Friday: 9:00 AM – 6:00 PM</li><li>Saturday: Closed</li><li>Sunday: Closed</li></ul>","https://maps.google.com/?cid=14012909007762172935","651-917-9937","http://hmonglibrary.org","ChIJtcDf1acq9ocRByyJvX_ad8I"
"Walker Library","2880 Hennepin Ave","Minneapolis","MN",55408,"US","<ul><li>Monday: 12:00 – 8:00 PM</li><li>Tuesday: 9:00 AM – 5:00 PM</li><li>Wednesday: 12:00 – 8:00 PM</li><li>Thursday: 9:00 AM – 5:00 PM</li><li>Friday: 9:00 AM – 5:00 PM</li><li>Saturday: 9:00 AM – 5:00 PM</li><li>Sunday: Closed</li></ul>","https://maps.google.com/?cid=12780384665628070319","612-543-8400","http://www.hclib.org/walker","ChIJocz12IEn9ocRr1Gc1yMMXbE"
"Midway Contemporary Art","527 SE 2nd Ave","Minneapolis","MN",55414,"US","<ul><li>Monday: Closed</li><li>Tuesday: Closed</li><li>Wednesday: 11:00 AM – 5:00 PM</li><li>Thursday: 11:00 AM – 5:00 PM</li><li>Friday: 11:00 AM – 5:00 PM</li><li>Saturday: 11:00 AM – 5:00 PM</li><li>Sunday: Closed</li></ul>","https://maps.google.com/?cid=5454591802082379888","612-605-4504","http://midwayart.org/","ChIJjwR1d3cts1IRcMjgJViasks"
"Lindquist & Vennum LLP","80 S 8th St","Minneapolis","MN",55402,"US","<ul><li>Monday: 8:00 AM – 5:30 PM</li><li>Tuesday: 8:00 AM – 5:30 PM</li><li>Wednesday: 8:00 AM – 5:30 PM</li><li>Thursday: 8:00 AM – 5:30 PM</li><li>Friday: 8:00 AM – 5:30 PM</li><li>Saturday: Closed</li><li>Sunday: Closed</li></ul>","https://maps.google.com/?cid=7475993978675267422","612-371-3211","http://www.lindquist.com/","ChIJkbv8OJcys1IRXgfmAeoQwGc"
"Ramsey County Library in Mounds View","2576 County Hwy 10","Mounds View","MN",55112,"US","<ul><li>Monday: 1:00 – 8:00 PM</li><li>Tuesday: Closed</li><li>Wednesday: 10:00 AM – 5:00 PM</li><li>Thursday: 1:00 – 8:00 PM</li><li>Friday: 10:00 AM – 5:00 PM</li><li>Saturday: 10:00 AM – 5:00 PM</li><li>Sunday: Closed</li></ul>","https://maps.google.com/?cid=12209137946609892507","763-717-3272","http://www.rclreads.org/","ChIJL3bK3PUls1IRm7xskUaSb6k"
"Libreria Cristiana Monte Sinai","3011 Cedar Ave","Minneapolis","MN",55407,"US","","https://maps.google.com/?cid=6633874429854254290","","","ChIJyc9NRxso9ocR0oQCbKVBEFw"
"Hudson Area Library","700 1st St","Hudson","WI",54016,"US","<ul><li>Monday: 10:00 AM – 8:00 PM</li><li>Tuesday: 10:00 AM – 8:00 PM</li><li>Wednesday: 10:00 AM – 8:00 PM</li><li>Thursday: 10:00 AM – 8:00 PM</li><li>Friday: 10:00 AM – 6:00 PM</li><li>Saturday: 10:00 AM – 3:00 PM</li><li>Sunday: Closed</li></ul>","https://maps.google.com/?cid=17432169115102143062","715-386-3101","http://www.hudsonpubliclibrary.org/","ChIJVVVVFTi1slIRVuIyWnOB6_E"
"Sun Ray Library","2105 Wilson Ave","St Paul","MN",55119,"US","<ul><li>Monday: 10:00 AM – 8:00 PM</li><li>Tuesday: 10:00 AM – 8:00 PM</li><li>Wednesday: 10:00 AM – 8:00 PM</li><li>Thursday: 10:00 AM – 8:00 PM</li><li>Friday: 10:00 AM – 5:30 PM</li><li>Saturday: 10:00 AM – 5:30 PM</li><li>Sunday: 1:00 – 5:00 PM</li></ul>","https://maps.google.com/?cid=11025852238103010389","651-501-6300","http://www.sppl.org/about/locations/sun-ray","ChIJ8Qu5OwTW94cRVVwTbjGyA5k"
"Galaxie Library","14955 Galaxie Ave","Apple Valley","MN",55124,"US","<ul><li>Monday: 10:00 AM – 8:30 PM</li><li>Tuesday: 10:00 AM – 8:30 PM</li><li>Wednesday: 10:00 AM – 8:30 PM</li><li>Thursday: 10:00 AM – 8:30 PM</li><li>Friday: 10:00 AM – 5:30 PM</li><li>Saturday: 10:00 AM – 5:30 PM</li><li>Sunday: 1:00 – 5:00 PM</li></ul>","https://maps.google.com/?cid=286177923443926588","952-891-7045","https://www.co.dakota.mn.us/libraries/Pages/default.aspx","ChIJ96hxny0x9ocRPCZvHU61-AM"
"University Archives","222 21st Ave S","Minneapolis","MN",55455,"US","","https://maps.google.com/?cid=17041775262338090648","612-624-0562","https://www.lib.umn.edu/uarchives","ChIJA2V6fWots1IRmIazVU-MgOw"
"South Oak Hill Little Library","W Lake St","St Louis Park","MN",55426,"US","","https://maps.google.com/?cid=12139341623416223045","","","ChIJm7crFIwg9ocRRXXWtuOad6g"
"Bethel University Library","3900 Bethel Dr","Arden Hills","MN",55112,"US","<ul><li>Monday: 9:00 AM – 6:00 PM</li><li>Tuesday: 9:00 AM – 6:00 PM</li><li>Wednesday: 9:00 AM – 6:00 PM</li><li>Thursday: 9:00 AM – 6:00 PM</li><li>Friday: 9:00 AM – 6:00 PM</li><li>Saturday: Closed</li><li>Sunday: Closed</li></ul>","https://maps.google.com/?cid=3005495837781505951","651-638-6400","http://www.bethel.edu/library","ChIJldB2XhAps1IRn7fhaIqqtSk"
"Patent Services","3M Center Dr","St Paul","MN",55144,"US","","https://maps.google.com/?cid=11660744997145818275","651-733-7670","","ChIJW3FDmeLVslIRozRKK8tJ06E"
"Century College","3300 Century Ave N","St Paul","MN",55110,"US","","https://maps.google.com/?cid=9126268897116997681","651-779-3200","http://www.century.edu/","ChIJDed_5YPRslIRMchaeTUFp34"
"Chaska Library","3 City Hall Plz","Chaska","MN",55318,"US","","https://maps.google.com/?cid=843133996816601849","952-448-3886","http://www.carverlib.org/","ChIJla36MvMP9ocR-RJPKudpsws"
"Gullixson Hall","2375 Como Ave","St Paul","MN",55108,"US","","https://maps.google.com/?cid=17118437823428988037","","http://www.luthersem.edu/campus/building_maps.aspx#gullixson_hall","ChIJBX1bDY4ss1IRhYwYx4DokO0"
"Dakota County Library Administration","199 Wentworth Ave E","West St Paul","MN",55118,"US","","https://maps.google.com/?cid=3510895332127665564","651-450-2925","http://www.co.dakota.mn.us/","ChIJ5zcH-cXU94cRnO0L-7M0uTA"
"Northwest Architectural Archives","221 21st Ave S","Minneapolis","MN",55455,"US","","https://maps.google.com/?cid=3167815443037384327","612-625-3550","https://www.lib.umn.edu/naa","ChIJEZUu8mots1IRh249lFxX9is"
"Nokomis Library","5100 S 34th Ave","Minneapolis","MN",55417,"US","<ul><li>Monday: 12:00 – 8:00 PM</li><li>Tuesday: 9:00 AM – 5:00 PM</li><li>Wednesday: 9:00 AM – 5:00 PM</li><li>Thursday: 12:00 – 8:00 PM</li><li>Friday: 9:00 AM – 5:00 PM</li><li>Saturday: 9:00 AM – 5:00 PM</li><li>Sunday: Closed</li></ul>","https://maps.google.com/?cid=17449498121768116149","612-543-6800","http://www.hclib.org/nokomis","ChIJzchaf_wo9ocRtZ_VIBcSKfI"
"Belle Plaine Library","125 W Main St","Belle Plaine","MN",56011,"US","<ul><li>Monday: Closed</li><li>Tuesday: 10:00 AM – 5:00 PM</li><li>Wednesday: 1:00 – 8:00 PM</li><li>Thursday: 1:00 – 8:00 PM</li><li>Friday: 10:00 AM – 5:00 PM</li><li>Saturday: 10:00 AM – 2:00 PM</li><li>Sunday: Closed</li></ul>","https://maps.google.com/?cid=13123892655332553113","952-873-6767","http://www.scottlib.org/","ChIJU7Yj0Mbf9YcRmXF0L9ZuIbY"
"ACL - ADMINISTRATION","707 County Hwy 10 Frontage Rd","Minneapolis","MN",55434,"US","<ul><li>Monday: 12:00 – 8:00 PM</li><li>Tuesday: 10:00 AM – 8:00 PM</li><li>Wednesday: 12:00 – 8:00 PM</li><li>Thursday: 10:00 AM – 6:00 PM</li><li>Friday: 12:00 – 6:00 PM</li><li>Saturday: 10:00 AM – 5:00 PM</li><li>Sunday: 1:00 – 5:00 PM</li></ul>","https://maps.google.com/?cid=2803426322531904158","763-785-3695","http://www.anoka.lib.mn.us/","ChIJt7-qAhQls1IRnmp-HGPF5yY"
"Carver County Law Library","604 E 4th St","Chaska","MN",55318,"US","","https://maps.google.com/?cid=3680273903656855571","952-361-1564","https://www.carverlib.org/SitePages/law_library_overview.aspx","ChIJ-c5HJ_EP9ocRE2ibz531EjM"
"Chanhassen Library","Kerber Blvd","Chanhassen","MN",55317,"US","<ul><li>Monday: 10:00 AM – 8:00 PM</li><li>Tuesday: 10:00 AM – 8:00 PM</li><li>Wednesday: 10:00 AM – 8:00 PM</li><li>Thursday: 10:00 AM – 8:00 PM</li><li>Friday: 10:00 AM – 5:00 PM</li><li>Saturday: 10:00 AM – 5:00 PM</li><li>Sunday: 1:00 – 5:00 PM</li></ul>","https://maps.google.com/?cid=14788018590703996180","952-227-1500","https://www.carverlib.org/SitePages/chanhassen.aspx","ChIJhfy57IIb9ocRFM3I1o6YOc0"
"Science and Engineering Library","","Minneapolis","MN",55455,"US","","https://maps.google.com/?cid=125528648843512975","","","ChIJS0at0hUts1IRj8xzG6T3vQE"
"Dayton's Bluff Library","90 W 4th St","St Paul","MN",55102,"US","<ul><li>Monday: 12:00 – 8:00 PM</li><li>Tuesday: 9:00 AM – 5:30 PM</li><li>Wednesday: 9:00 AM – 5:30 PM</li><li>Thursday: 9:00 AM – 5:30 PM</li><li>Friday: 9:00 AM – 5:30 PM</li><li>Saturday: 11:00 AM – 5:00 PM</li><li>Sunday: 1:00 – 5:00 PM</li></ul>","https://maps.google.com/?cid=6176333769167185564","651-266-7000","http://www.sppl.org/","ChIJKYToS2DV94cRnKZ15da-tlU"
"Victoria Library","1670 Stieger Lake Ln","Victoria","MN",55386,"US","","https://maps.google.com/?cid=12595993209955160718","952-442-3050","http://www.carverlib.org/","ChIJVzq7SwIE9ocRjhKciBb1za4"
"Heritage Library","20085 Heritage Dr","Lakeville","MN",55044,"US","<ul><li>Monday: 10:00 AM – 8:30 PM</li><li>Tuesday: 10:00 AM – 8:30 PM</li><li>Wednesday: 10:00 AM – 8:30 PM</li><li>Thursday: 10:00 AM – 8:30 PM</li><li>Friday: 10:00 AM – 5:30 PM</li><li>Saturday: 10:00 AM – 5:30 PM</li><li>Sunday: 1:00 – 5:00 PM</li></ul>","https://maps.google.com/?cid=9279984443770037345","952-891-0360","https://www.co.dakota.mn.us/libraries/HoursLocations/Heritage","ChIJcznMl-M39ocRYWQQJK8gyYA"
"Eagle Learning Center","7800 Metro Pkwy","Bloomington","MN",55425,"US","","https://maps.google.com/?cid=6707324742185218490","952-851-7627","http://www.eaglelearning.com/","ChIJd8mPXT0v9ocRunEj61A0FV0"
"Wildwood Library","763 Stillwater Rd","St Paul","MN",55115,"US","<ul><li>Monday: 9:30 AM – 8:00 PM</li><li>Tuesday: 12:30 – 8:00 PM</li><li>Wednesday: 12:30 – 8:00 PM</li><li>Thursday: 12:30 – 8:00 PM</li><li>Friday: 12:30 – 5:00 PM</li><li>Saturday: 9:30 AM – 5:00 PM</li><li>Sunday: Closed</li></ul>","https://maps.google.com/?cid=15495053377989411924","651-426-2042","http://www.co.washington.mn.us/Facilities/Facility/Details/6","ChIJtTXZat7RslIRVITGcvN8Cdc"
"Cooperating Libraries-Consortium","1619 W Dayton Ave","St Paul","MN",55104,"US","<ul><li>Monday: 8:00 AM – 5:00 PM</li><li>Tuesday: 8:00 AM – 5:00 PM</li><li>Wednesday: 8:00 AM – 5:00 PM</li><li>Thursday: 8:00 AM – 5:00 PM</li><li>Friday: 8:00 AM – 4:00 PM</li><li>Saturday: Closed</li><li>Sunday: Closed</li></ul>","https://maps.google.com/?cid=16389873365945139671","651-644-3878","","ChIJc6kEXQUq9ocR18HLMv2GdOM"
"Special Collections and Rare Books","222 21st Ave S","Minneapolis","MN",55455,"US","<ul><li>Monday: 8:30 AM – 4:30 PM</li><li>Tuesday: 8:30 AM – 4:30 PM</li><li>Wednesday: 8:30 AM – 7:00 PM</li><li>Thursday: 8:30 AM – 7:00 PM</li><li>Friday: 8:30 AM – 4:30 PM</li><li>Saturday: Closed</li><li>Sunday: Closed</li></ul>","https://maps.google.com/?cid=8466474547421727826","612-624-0562","http://special.lib.umn.edu/","ChIJo4P-fGots1IRUkz1Wr71fnU"
"Great River Regional Library","790 Minnesota Ave","Big Lake","MN",55309,"US","<ul><li>Monday: 2:00 – 7:00 PM</li><li>Tuesday: 10:00 AM – 1:00 PM</li><li>Wednesday: 2:00 – 6:00 PM</li><li>Thursday: 2:00 – 6:00 PM</li><li>Friday: 10:00 AM – 5:00 PM</li><li>Saturday: 10:00 AM – 1:00 PM</li><li>Sunday: Closed</li></ul>","https://maps.google.com/?cid=5909663998277251104","763-263-6445","http://www.griver.org/","ChIJE39ryLdjs1IRIPA6fxhYA1I"
"Savage Library","13090 Alabama Ave S","Savage","MN",55378,"US","<ul><li>Monday: 10:00 AM – 8:00 PM</li><li>Tuesday: 10:00 AM – 8:00 PM</li><li>Wednesday: 1:00 – 8:00 PM</li><li>Thursday: 10:00 AM – 8:00 PM</li><li>Friday: 10:00 AM – 5:00 PM</li><li>Saturday: 10:00 AM – 4:00 PM</li><li>Sunday: 1:00 – 5:00 PM</li></ul>","https://maps.google.com/?cid=13819863068261584135","952-707-1770","http://www.scott.lib.mn.us/","ChIJO1sl8Yo89ocRB41FZD0Eyr8"
"Honorable Donald P Lay","316 Robert St N","St Paul","MN",55101,"US","","https://maps.google.com/?cid=1295849244398494438","651-848-1310","","ChIJdVXXCE_V94cR5qLUpgXI-xE"
"Robert Trail Library","14395 S Robert Trail","Rosemount","MN",55068,"US","<ul><li>Monday: 10:00 AM – 8:30 PM</li><li>Tuesday: 10:00 AM – 8:30 PM</li><li>Wednesday: 10:00 AM – 8:30 PM</li><li>Thursday: 10:00 AM – 8:30 PM</li><li>Friday: 10:00 AM – 5:30 PM</li><li>Saturday: 10:00 AM – 5:30 PM</li><li>Sunday: 1:00 – 5:00 PM</li></ul>","https://maps.google.com/?cid=8615600926302890134","651-480-1200","https://www.co.dakota.mn.us/libraries/HoursLocations/RobertTrail","ChIJJ-DDJWUz9ocRlmjPImXDkHc"
"Normandale Community College","9700 France Ave S","Bloomington","MN",55431,"US","","https://maps.google.com/?cid=9491076867723930358","952-358-8200","http://www.normandale.edu/","ChIJQR6y4Jok9ocR9qqcFCAUt4M"
"Ames Library of South Asia","309 19th Ave S","Minneapolis","MN",55455,"US","","https://maps.google.com/?cid=17007252493577332172","612-624-4857","https://www.lib.umn.edu/ames","ChIJS_44o0Ets1IRzKUN3QjmBew"
"St. Francis Library","3519 Bridge St NW","St Francis","MN",55070,"US","<ul><li>Monday: 12:00 – 8:00 PM</li><li>Tuesday: 10:00 AM – 6:00 PM</li><li>Wednesday: 12:00 – 8:00 PM</li><li>Thursday: 10:00 AM – 6:00 PM</li><li>Friday: 12:00 – 6:00 PM</li><li>Saturday: 10:00 AM – 2:00 PM</li><li>Sunday: Closed</li></ul>","https://maps.google.com/?cid=788352970698216895","763-753-2131","http://www.anokacountylibrary.org/","ChIJKa-XwM4Rs1IRv1UXmNnK8Ao"
"Hennepin County Library","5100 S 34th Ave","Minneapolis","MN",55417,"US","","https://maps.google.com/?cid=6837964790401802383","","","ChIJO42_gPso9ocRjyCHbr9U5V4"
"Eden Prairie Library","565 Prairie Center Dr","Eden Prairie","MN",55344,"US","<ul><li>Monday: 9:00 AM – 9:00 PM</li><li>Tuesday: 9:00 AM – 9:00 PM</li><li>Wednesday: 9:00 AM – 9:00 PM</li><li>Thursday: 9:00 AM – 9:00 PM</li><li>Friday: 9:00 AM – 5:00 PM</li><li>Saturday: 9:00 AM – 5:00 PM</li><li>Sunday: 12:00 – 5:00 PM</li></ul>","https://maps.google.com/?cid=5610040549566014983","612-543-6275","http://www.hclib.org/edenprairie","ChIJYzxxI5oY9ocRB2ZrFCje2k0"
"Lake Elmo Public Library","3537 Lake Elmo Ave N","Lake Elmo","MN",55042,"US","","https://maps.google.com/?cid=2185959894882960257","651-773-4926","http://www.lakeelmopubliclibrary.org/","ChIJeT7z54rMslIRgcO_U_EWVh4"
"Pierre Bottineau Library","55 Broadway St NE","Minneapolis","MN",55413,"US","<ul><li>Monday: 12:00 – 8:00 PM</li><li>Tuesday: 9:00 AM – 5:00 PM</li><li>Wednesday: 9:00 AM – 5:00 PM</li><li>Thursday: 12:00 – 8:00 PM</li><li>Friday: 9:00 AM – 5:00 PM</li><li>Saturday: 9:00 AM – 5:00 PM</li><li>Sunday: Closed</li></ul>","https://maps.google.com/?cid=3960336379292912675","612-543-6850","http://www.hclib.org/pierrebottineau","ChIJ6WK2a3oys1IRI4zPRvTw9TY"
"Anoka County Library Crooked Lake","11440 Crooked Lake Boulevard","Coon Rapids","MN",55433,"US","<ul><li>Monday: 12:00 – 8:00 PM</li><li>Tuesday: 10:00 AM – 6:00 PM</li><li>Wednesday: 12:00 – 8:00 PM</li><li>Thursday: 10:00 AM – 6:00 PM</li><li>Friday: 12:00 – 6:00 PM</li><li>Saturday: 10:00 AM – 5:00 PM</li><li>Sunday: Closed</li></ul>","https://maps.google.com/?cid=10684427200535737804","763-576-5972","http://www.anoka.lib.mn.us/about/locations/acl-crooked-lake","ChIJS2bu7HY8s1IRzDV0LO61RpQ"
"Resources For Child Caring","2021 E Hennepin Ave","Minneapolis","MN",55413,"US","","https://maps.google.com/?cid=6961666543804340815","651-641-0305","http://www.thinksmall.org/","ChIJ-5wjdQAts1IRT9otTNbOnGA"
"Minneapolis Central Library","300 Nicollet Mall","Minneapolis","MN",55401,"US","<ul><li>Monday: 9:00 AM – 9:00 PM</li><li>Tuesday: 9:00 AM – 9:00 PM</li><li>Wednesday: 9:00 AM – 9:00 PM</li><li>Thursday: 9:00 AM – 9:00 PM</li><li>Friday: 9:00 AM – 5:00 PM</li><li>Saturday: 9:00 AM – 5:00 PM</li><li>Sunday: 12:00 – 5:00 PM</li></ul>","https://maps.google.com/?cid=8713452121897218264","612-543-8000","http://www.hclib.org/minneapoliscentral","ChIJ64ilwZoys1IR2LAO_Ylm7Hg"
"Borlaug Commons","1991 Upper Buford Cir","St Paul","MN",55108,"US","","https://maps.google.com/?cid=909503862583284786","612-625-9777","http://plant.lib.umn.edu/","ChIJd-2-T4Iss1IRMlQfu_E0nww"
"Mackin Educational Resources","3505 County Rd 42 W","Burnsville","MN",55306,"US","<ul><li>Monday: 8:00 AM – 6:00 PM</li><li>Tuesday: 8:00 AM – 6:00 PM</li><li>Wednesday: 8:00 AM – 6:00 PM</li><li>Thursday: 8:00 AM – 6:00 PM</li><li>Friday: 8:00 AM – 6:00 PM</li><li>Saturday: Closed</li><li>Sunday: Closed</li></ul>","https://maps.google.com/?cid=12487868702669075167","952-895-9540","http://www.mackin.com/","ChIJ850zO-s79ocR3_JO6GvSTa0"
"Hmong Cultural Center","375 University Ave W","St Paul","MN",55103,"US","<ul><li>Monday: 9:00 AM – 6:00 PM</li><li>Tuesday: 9:00 AM – 6:00 PM</li><li>Wednesday: 9:00 AM – 6:00 PM</li><li>Thursday: 9:00 AM – 6:00 PM</li><li>Friday: 9:00 AM – 6:00 PM</li><li>Saturday: Closed</li><li>Sunday: Closed</li></ul>","https://maps.google.com/?cid=17720445712352490784","651-917-9937","http://www.hmongcc.org/","ChIJvQ2lTn8q9ocRIDVdCn2r6_U"
"T J Jones Library","915 E 14th St","Minneapolis","MN",55404,"US","<ul><li>Monday: 7:00 AM – 12:00 AM</li><li>Tuesday: 7:00 AM – 12:00 AM</li><li>Wednesday: 7:00 AM – 12:00 AM</li><li>Thursday: 7:00 AM – 12:00 AM</li><li>Friday: 7:00 AM – 5:00 PM</li><li>Saturday: 1:00 – 5:00 PM</li><li>Sunday: 6:00 PM – 12:00 AM</li></ul>","https://maps.google.com/?cid=5616159523493374068","612-343-4490","http://www.northcentral.edu/library","ChIJHWZuoaAys1IRdOi_t1Sb8E0"
"Elko New Market Library","110 J. Roberts Way","Elko New Market","MN",55054,"US","<ul><li>Monday: 1:00 – 8:00 PM</li><li>Tuesday: 10:00 AM – 5:00 PM</li><li>Wednesday: 1:00 – 8:00 PM</li><li>Thursday: Closed</li><li>Friday: 10:00 AM – 5:00 PM</li><li>Saturday: 10:00 AM – 2:00 PM</li><li>Sunday: Closed</li></ul>","https://maps.google.com/?cid=14445955278464549508","952-496-8030","http://www.scottlib.org/","ChIJGaNVCuND9ocRhAIPrslXesg"
"North Regional Library","1315 Lowry Avenue North","Minneapolis","MN",55411,"US","<ul><li>Monday: 9:00 AM – 8:00 PM</li><li>Tuesday: 9:00 AM – 8:00 PM</li><li>Wednesday: 9:00 AM – 5:00 PM</li><li>Thursday: 9:00 AM – 8:00 PM</li><li>Friday: 9:00 AM – 5:00 PM</li><li>Saturday: 9:00 AM – 5:00 PM</li><li>Sunday: 12:00 – 5:00 PM</li></ul>","https://maps.google.com/?cid=16399808818001434335","612-543-8450","http://www.hclib.org/northregional","ChIJoVWlTzcys1IR31ZL5TrTl-M"
"Maple Grove Library","8001 Main St N","Maple Grove","MN",55369,"US","<ul><li>Monday: 9:00 AM – 9:00 PM</li><li>Tuesday: 9:00 AM – 9:00 PM</li><li>Wednesday: 9:00 AM – 9:00 PM</li><li>Thursday: 9:00 AM – 9:00 PM</li><li>Friday: 9:00 AM – 5:00 PM</li><li>Saturday: 9:00 AM – 5:00 PM</li><li>Sunday: 12:00 – 5:00 PM</li></ul>","https://maps.google.com/?cid=2426760613042242711","612-543-6450","http://www.hclib.org/maplegrove","ChIJ8VE6lPhHs1IRl8RKh-uVrSE"
"Oxboro Library","8801 Portland Ave S","Bloomington","MN",55420,"US","<ul><li>Monday: 9:00 AM – 5:00 PM</li><li>Tuesday: 12:00 – 8:00 PM</li><li>Wednesday: 12:00 – 8:00 PM</li><li>Thursday: 9:00 AM – 5:00 PM</li><li>Friday: 9:00 AM – 5:00 PM</li><li>Saturday: 9:00 AM – 5:00 PM</li><li>Sunday: Closed</li></ul>","https://maps.google.com/?cid=5165382204834107034","612-543-5775","http://www.hclib.org/oxboro","ChIJgU6jGIMl9ocRms5CeL8fr0c"
"Northtown Library","711 County Hwy 10 Frontage Rd","Minneapolis","MN",55434,"US","<ul><li>Monday: 12:00 – 8:00 PM</li><li>Tuesday: 10:00 AM – 8:00 PM</li><li>Wednesday: 12:00 – 8:00 PM</li><li>Thursday: 10:00 AM – 6:00 PM</li><li>Friday: 12:00 – 6:00 PM</li><li>Saturday: 10:00 AM – 5:00 PM</li><li>Sunday: 1:00 – 5:00 PM</li></ul>","https://maps.google.com/?cid=13678455035276432636","763-717-3267","http://www.anokacountylibrary.org/","ChIJt7-qAhQls1IR_BTODWKi070"
"Minitex Library Information","222 21st Ave S","Minneapolis","MN",55455,"US","","https://maps.google.com/?cid=5530677922236130346","612-624-4002","https://www.minitex.umn.edu/","ChIJo4P-fGots1IRKuT6eUTqwEw"
"Social Welfare History Archives","222 21st Ave S","Minneapolis","MN",55455,"US","","https://maps.google.com/?cid=7036525022448983993","612-624-6394","https://www.lib.umn.edu/swha","ChIJo4P-fGots1IRuR84EDrCpmE"
"Parault Reading Center","5910 Teakwood Ln N","Plymouth","MN",55442,"US","","https://maps.google.com/?cid=7391942102729405850","952-567-1331","","ChIJi98utsxJs1IRmrVwoS10lWY"
"Walter Circulation","117 Pleasant St SE","Minneapolis","MN",55455,"US","","https://maps.google.com/?cid=13750055318244335195","612-624-3366","https://www.lib.umn.edu/walter/layout","ChIJSwWpShQts1IRW57sBXYC0r4"
"Felhaber, Larson, Fenlon & Vogt P.A.","220 South 6th St","Minneapolis","MN",55402,"US","<ul><li>Monday: 7:30 AM – 5:30 PM</li><li>Tuesday: 7:30 AM – 5:30 PM</li><li>Wednesday: 7:30 AM – 5:30 PM</li><li>Thursday: 7:30 AM – 5:30 PM</li><li>Friday: 7:30 AM – 5:30 PM</li><li>Saturday: Closed</li><li>Sunday: Closed</li></ul>","https://maps.google.com/?cid=7304700714494550144","612-339-6321","http://www.felhaber.com/","ChIJZ7omfJkys1IRgGD9DZmCX2U"
"Westonka Library","2079 Commerce Blvd","Mound","MN",55364,"US","<ul><li>Monday: 12:00 – 8:00 PM</li><li>Tuesday: 9:00 AM – 5:00 PM</li><li>Wednesday: 12:00 – 8:00 PM</li><li>Thursday: 9:00 AM – 5:00 PM</li><li>Friday: 9:00 AM – 5:00 PM</li><li>Saturday: 9:00 AM – 5:00 PM</li><li>Sunday: Closed</li></ul>","https://maps.google.com/?cid=18346662674146961108","612-543-6175","http://www.hclib.org/westonka","ChIJp3pRD_4B9ocR1KZyUn9wnP4"
"Library Services & School Tech","1500 MN-36","Roseville","MN",55113,"US","","https://maps.google.com/?cid=11804696602214593075","651-582-8791","","ChIJE0gby78rs1IRM_JCCAS10qM"
"Children's Healthcare Med Library","345 N Smith Ave","St Paul","MN",55102,"US","","https://maps.google.com/?cid=2164553691485374380","651-220-6145","","ChIJl9M3KLEq9ocRrAc_Nh0KCh4"
"North Central Library","17565 Central Ave NE","Ham Lake","MN",55304,"US","<ul><li>Monday: 12:00 – 8:00 PM</li><li>Tuesday: 10:00 AM – 6:00 PM</li><li>Wednesday: 12:00 – 8:00 PM</li><li>Thursday: 10:00 AM – 6:00 PM</li><li>Friday: 12:00 – 6:00 PM</li><li>Saturday: 10:00 AM – 5:00 PM</li><li>Sunday: Closed</li></ul>","https://maps.google.com/?cid=16786377861365423231","763-434-6542","http://www.anokacountylibrary.org/","ChIJ3ejGGd8Ys1IRf9wqFLox9eg"
"Hopkins Historical Museum Library","314 14th Ave N","Hopkins","MN",55343,"US","","https://maps.google.com/?cid=10282133943956096570","952-979-0447","","ChIJPUIgiB8g9ocROkZ9Tlh6sY4"
"Cologne Express Library","1211 Village Pkwy","Chaska","MN",55318,"US","<ul><li>Monday: 8:00 AM – 4:30 PM</li><li>Tuesday: 8:00 AM – 4:30 PM</li><li>Wednesday: 8:00 AM – 4:30 PM</li><li>Thursday: 8:00 AM – 4:30 PM</li><li>Friday: 8:00 AM – 4:30 PM</li><li>Saturday: Closed</li><li>Sunday: Closed</li></ul>","https://maps.google.com/?cid=4653769556783099191","952-227-1500","https://www.carverlib.org/SitePages/cologne_express.aspx","ChIJwevJVRoF9ocRN22VUsGClUA"
"Edina Library","5280 Grandview Square","Edina","MN",55436,"US","<ul><li>Monday: 9:00 AM – 8:00 PM</li><li>Tuesday: 9:00 AM – 8:00 PM</li><li>Wednesday: 9:00 AM – 8:00 PM</li><li>Thursday: 9:00 AM – 5:00 PM</li><li>Friday: 9:00 AM – 5:00 PM</li><li>Saturday: 9:00 AM – 5:00 PM</li><li>Sunday: 12:00 – 5:00 PM</li></ul>","https://maps.google.com/?cid=8838837380485440748","612-543-6325","http://www.hclib.org/edina","ChIJO3z_ziMh9ocR7GRHc8TbqXo"
"Bush Memorial Library","1536 Hewitt Ave","St Paul","MN",55104,"US","","https://maps.google.com/?cid=8336762536869652623","651-523-2375","http://www.hamline.edu/bushlibrary/","ChIJo1fau0Urs1IRj2jmclshsnM"
"Warren E Burger Library","871 Summit Ave","St Paul","MN",55105,"US","","https://maps.google.com/?cid=6991082399851366025","651-227-9171","","ChIJ1bkPd4oq9ocRiUag_mZQBWE"
